{
"type": "FeatureCollection",
"name": "points_shifted_50",
"crs": { "type": "name", "properties": { "name": "urn:ogc:def:crs:OGC:1.3:CRS84" } },
"features": [
{ "type": "Feature", "properties": { "id": 0 }, "geometry": { "type": "Point", "coordinates": [ 7.195831, 48.564039 ] } },
{ "type": "Feature", "properties": { "id": 1 }, "geometry": { "type": "Point", "coordinates": [ 6.83945, 48.954385 ] } },
{ "type": "Feature", "properties": { "id": 2 }, "geometry": { "type": "Point", "coordinates": [ 6.84884, 49.259698 ] } },
{ "type": "Feature", "properties": { "id": 3 }, "geometry": { "type": "Point", "coordinates": [ 6.86725, 48.779717 ] } },
{ "type": "Feature", "properties": { "id": 4 }, "geometry": { "type": "Point", "coordinates": [ 6.700426, 49.319163 ] } },
{ "type": "Feature", "properties": { "id": 5 }, "geometry": { "type": "Point", "coordinates": [ 5.843891, 49.39171 ] } },
{ "type": "Feature", "properties": { "id": 6 }, "geometry": { "type": "Point", "coordinates": [ 6.425691, 48.994283 ] } },
{ "type": "Feature", "properties": { "id": 7 }, "geometry": { "type": "Point", "coordinates": [ 6.950169, 48.809527 ] } },
{ "type": "Feature", "properties": { "id": 8 }, "geometry": { "type": "Point", "coordinates": [ 7.12316, 49.383672 ] } },
{ "type": "Feature", "properties": { "id": 9 }, "geometry": { "type": "Point", "coordinates": [ 6.125603, 48.964518 ] } },
{ "type": "Feature", "properties": { "id": 10 }, "geometry": { "type": "Point", "coordinates": [ 6.354327, 48.957909 ] } },
{ "type": "Feature", "properties": { "id": 11 }, "geometry": { "type": "Point", "coordinates": [ 6.870721, 48.88713 ] } },
{ "type": "Feature", "properties": { "id": 12 }, "geometry": { "type": "Point", "coordinates": [ 7.259892, 49.019602 ] } },
{ "type": "Feature", "properties": { "id": 13 }, "geometry": { "type": "Point", "coordinates": [ 6.338795, 48.738256 ] } },
{ "type": "Feature", "properties": { "id": 14 }, "geometry": { "type": "Point", "coordinates": [ 6.450806, 49.185966 ] } },
{ "type": "Feature", "properties": { "id": 15 }, "geometry": { "type": "Point", "coordinates": [ 6.798763, 49.049823 ] } },
{ "type": "Feature", "properties": { "id": 16 }, "geometry": { "type": "Point", "coordinates": [ 5.856476, 48.51292 ] } },
{ "type": "Feature", "properties": { "id": 17 }, "geometry": { "type": "Point", "coordinates": [ 6.733627, 49.365234 ] } },
{ "type": "Feature", "properties": { "id": 18 }, "geometry": { "type": "Point", "coordinates": [ 6.463657, 49.215108 ] } },
{ "type": "Feature", "properties": { "id": 19 }, "geometry": { "type": "Point", "coordinates": [ 6.410724, 48.854676 ] } },
{ "type": "Feature", "properties": { "id": 20 }, "geometry": { "type": "Point", "coordinates": [ 6.841672, 48.800167 ] } },
{ "type": "Feature", "properties": { "id": 21 }, "geometry": { "type": "Point", "coordinates": [ 6.519192, 49.254297 ] } },
{ "type": "Feature", "properties": { "id": 22 }, "geometry": { "type": "Point", "coordinates": [ 7.176597, 48.689665 ] } },
{ "type": "Feature", "properties": { "id": 23 }, "geometry": { "type": "Point", "coordinates": [ 6.790811, 48.642471 ] } },
{ "type": "Feature", "properties": { "id": 24 }, "geometry": { "type": "Point", "coordinates": [ 6.223429, 48.626659 ] } },
{ "type": "Feature", "properties": { "id": 25 }, "geometry": { "type": "Point", "coordinates": [ 7.286129, 49.236291 ] } },
{ "type": "Feature", "properties": { "id": 26 }, "geometry": { "type": "Point", "coordinates": [ 7.074684, 48.596128 ] } },
{ "type": "Feature", "properties": { "id": 27 }, "geometry": { "type": "Point", "coordinates": [ 7.302541, 49.229486 ] } },
{ "type": "Feature", "properties": { "id": 28 }, "geometry": { "type": "Point", "coordinates": [ 5.779413, 48.514527 ] } },
{ "type": "Feature", "properties": { "id": 29 }, "geometry": { "type": "Point", "coordinates": [ 6.766189, 49.160824 ] } },
{ "type": "Feature", "properties": { "id": 30 }, "geometry": { "type": "Point", "coordinates": [ 7.0891, 48.961026 ] } },
{ "type": "Feature", "properties": { "id": 31 }, "geometry": { "type": "Point", "coordinates": [ 5.774566, 49.145697 ] } },
{ "type": "Feature", "properties": { "id": 32 }, "geometry": { "type": "Point", "coordinates": [ 7.268493, 48.946282 ] } },
{ "type": "Feature", "properties": { "id": 33 }, "geometry": { "type": "Point", "coordinates": [ 5.751711, 48.935152 ] } },
{ "type": "Feature", "properties": { "id": 34 }, "geometry": { "type": "Point", "coordinates": [ 5.802149, 48.546768 ] } },
{ "type": "Feature", "properties": { "id": 35 }, "geometry": { "type": "Point", "coordinates": [ 6.723155, 49.052789 ] } },
{ "type": "Feature", "properties": { "id": 36 }, "geometry": { "type": "Point", "coordinates": [ 6.433861, 49.16524 ] } },
{ "type": "Feature", "properties": { "id": 37 }, "geometry": { "type": "Point", "coordinates": [ 5.899536, 48.64072 ] } },
{ "type": "Feature", "properties": { "id": 38 }, "geometry": { "type": "Point", "coordinates": [ 5.839415, 48.693325 ] } },
{ "type": "Feature", "properties": { "id": 39 }, "geometry": { "type": "Point", "coordinates": [ 6.009706, 49.150161 ] } },
{ "type": "Feature", "properties": { "id": 40 }, "geometry": { "type": "Point", "coordinates": [ 5.856528, 49.390071 ] } },
{ "type": "Feature", "properties": { "id": 41 }, "geometry": { "type": "Point", "coordinates": [ 7.265573, 49.37599 ] } },
{ "type": "Feature", "properties": { "id": 42 }, "geometry": { "type": "Point", "coordinates": [ 6.938573, 49.369249 ] } },
{ "type": "Feature", "properties": { "id": 43 }, "geometry": { "type": "Point", "coordinates": [ 6.107526, 48.91486 ] } },
{ "type": "Feature", "properties": { "id": 44 }, "geometry": { "type": "Point", "coordinates": [ 7.297635, 48.865757 ] } },
{ "type": "Feature", "properties": { "id": 45 }, "geometry": { "type": "Point", "coordinates": [ 6.369682, 49.303178 ] } },
{ "type": "Feature", "properties": { "id": 46 }, "geometry": { "type": "Point", "coordinates": [ 7.214725, 49.167655 ] } },
{ "type": "Feature", "properties": { "id": 47 }, "geometry": { "type": "Point", "coordinates": [ 6.363958, 48.982803 ] } },
{ "type": "Feature", "properties": { "id": 48 }, "geometry": { "type": "Point", "coordinates": [ 6.497318, 48.635982 ] } },
{ "type": "Feature", "properties": { "id": 49 }, "geometry": { "type": "Point", "coordinates": [ 6.023695, 49.287028 ] } }
]
}
