{
"type": "FeatureCollection",
"name": "points_shifted_500",
"crs": { "type": "name", "properties": { "name": "urn:ogc:def:crs:OGC:1.3:CRS84" } },
"features": [
{ "type": "Feature", "properties": { "id": 0 }, "geometry": { "type": "Point", "coordinates": [ 7.33225, 48.867334 ] } },
{ "type": "Feature", "properties": { "id": 1 }, "geometry": { "type": "Point", "coordinates": [ 6.705555, 49.0531 ] } },
{ "type": "Feature", "properties": { "id": 2 }, "geometry": { "type": "Point", "coordinates": [ 6.125049, 49.266963 ] } },
{ "type": "Feature", "properties": { "id": 3 }, "geometry": { "type": "Point", "coordinates": [ 6.905755, 49.023664 ] } },
{ "type": "Feature", "properties": { "id": 4 }, "geometry": { "type": "Point", "coordinates": [ 6.638493, 48.999153 ] } },
{ "type": "Feature", "properties": { "id": 5 }, "geometry": { "type": "Point", "coordinates": [ 7.235775, 49.28695 ] } },
{ "type": "Feature", "properties": { "id": 6 }, "geometry": { "type": "Point", "coordinates": [ 7.050589, 49.319807 ] } },
{ "type": "Feature", "properties": { "id": 7 }, "geometry": { "type": "Point", "coordinates": [ 6.021696, 48.820812 ] } },
{ "type": "Feature", "properties": { "id": 8 }, "geometry": { "type": "Point", "coordinates": [ 5.847566, 49.032697 ] } },
{ "type": "Feature", "properties": { "id": 9 }, "geometry": { "type": "Point", "coordinates": [ 6.2557, 49.073247 ] } },
{ "type": "Feature", "properties": { "id": 10 }, "geometry": { "type": "Point", "coordinates": [ 7.042883, 48.711355 ] } },
{ "type": "Feature", "properties": { "id": 11 }, "geometry": { "type": "Point", "coordinates": [ 6.42332, 48.972708 ] } },
{ "type": "Feature", "properties": { "id": 12 }, "geometry": { "type": "Point", "coordinates": [ 6.437749, 49.39922 ] } },
{ "type": "Feature", "properties": { "id": 13 }, "geometry": { "type": "Point", "coordinates": [ 6.691158, 48.685632 ] } },
{ "type": "Feature", "properties": { "id": 14 }, "geometry": { "type": "Point", "coordinates": [ 7.039975, 48.897135 ] } },
{ "type": "Feature", "properties": { "id": 15 }, "geometry": { "type": "Point", "coordinates": [ 6.647207, 49.32921 ] } },
{ "type": "Feature", "properties": { "id": 16 }, "geometry": { "type": "Point", "coordinates": [ 6.422908, 49.124344 ] } },
{ "type": "Feature", "properties": { "id": 17 }, "geometry": { "type": "Point", "coordinates": [ 6.112127, 48.531332 ] } },
{ "type": "Feature", "properties": { "id": 18 }, "geometry": { "type": "Point", "coordinates": [ 6.744304, 48.817875 ] } },
{ "type": "Feature", "properties": { "id": 19 }, "geometry": { "type": "Point", "coordinates": [ 6.231541, 49.007658 ] } },
{ "type": "Feature", "properties": { "id": 20 }, "geometry": { "type": "Point", "coordinates": [ 5.766458, 49.355795 ] } },
{ "type": "Feature", "properties": { "id": 21 }, "geometry": { "type": "Point", "coordinates": [ 6.411199, 48.81302 ] } },
{ "type": "Feature", "properties": { "id": 22 }, "geometry": { "type": "Point", "coordinates": [ 6.193958, 49.18766 ] } },
{ "type": "Feature", "properties": { "id": 23 }, "geometry": { "type": "Point", "coordinates": [ 5.976171, 48.543781 ] } },
{ "type": "Feature", "properties": { "id": 24 }, "geometry": { "type": "Point", "coordinates": [ 6.129124, 48.597139 ] } },
{ "type": "Feature", "properties": { "id": 25 }, "geometry": { "type": "Point", "coordinates": [ 6.100522, 48.783234 ] } },
{ "type": "Feature", "properties": { "id": 26 }, "geometry": { "type": "Point", "coordinates": [ 5.85283, 48.715023 ] } },
{ "type": "Feature", "properties": { "id": 27 }, "geometry": { "type": "Point", "coordinates": [ 6.672757, 48.715459 ] } },
{ "type": "Feature", "properties": { "id": 28 }, "geometry": { "type": "Point", "coordinates": [ 6.215847, 49.220939 ] } },
{ "type": "Feature", "properties": { "id": 29 }, "geometry": { "type": "Point", "coordinates": [ 5.821435, 48.798083 ] } },
{ "type": "Feature", "properties": { "id": 30 }, "geometry": { "type": "Point", "coordinates": [ 7.160673, 49.361141 ] } },
{ "type": "Feature", "properties": { "id": 31 }, "geometry": { "type": "Point", "coordinates": [ 6.227898, 48.515389 ] } },
{ "type": "Feature", "properties": { "id": 32 }, "geometry": { "type": "Point", "coordinates": [ 6.872987, 48.944368 ] } },
{ "type": "Feature", "properties": { "id": 33 }, "geometry": { "type": "Point", "coordinates": [ 6.97824, 49.30762 ] } },
{ "type": "Feature", "properties": { "id": 34 }, "geometry": { "type": "Point", "coordinates": [ 6.999594, 48.93157 ] } },
{ "type": "Feature", "properties": { "id": 35 }, "geometry": { "type": "Point", "coordinates": [ 5.901652, 48.719178 ] } },
{ "type": "Feature", "properties": { "id": 36 }, "geometry": { "type": "Point", "coordinates": [ 6.409076, 49.396362 ] } },
{ "type": "Feature", "properties": { "id": 37 }, "geometry": { "type": "Point", "coordinates": [ 5.749351, 48.838641 ] } },
{ "type": "Feature", "properties": { "id": 38 }, "geometry": { "type": "Point", "coordinates": [ 5.998031, 48.993036 ] } },
{ "type": "Feature", "properties": { "id": 39 }, "geometry": { "type": "Point", "coordinates": [ 6.389025, 48.966547 ] } },
{ "type": "Feature", "properties": { "id": 40 }, "geometry": { "type": "Point", "coordinates": [ 7.040459, 48.963175 ] } },
{ "type": "Feature", "properties": { "id": 41 }, "geometry": { "type": "Point", "coordinates": [ 6.401909, 49.007075 ] } },
{ "type": "Feature", "properties": { "id": 42 }, "geometry": { "type": "Point", "coordinates": [ 6.2749, 48.948385 ] } },
{ "type": "Feature", "properties": { "id": 43 }, "geometry": { "type": "Point", "coordinates": [ 5.790768, 48.524151 ] } },
{ "type": "Feature", "properties": { "id": 44 }, "geometry": { "type": "Point", "coordinates": [ 5.848102, 48.872708 ] } },
{ "type": "Feature", "properties": { "id": 45 }, "geometry": { "type": "Point", "coordinates": [ 6.763032, 48.632386 ] } },
{ "type": "Feature", "properties": { "id": 46 }, "geometry": { "type": "Point", "coordinates": [ 7.003042, 48.8046 ] } },
{ "type": "Feature", "properties": { "id": 47 }, "geometry": { "type": "Point", "coordinates": [ 7.077179, 49.047251 ] } },
{ "type": "Feature", "properties": { "id": 48 }, "geometry": { "type": "Point", "coordinates": [ 6.596321, 48.919804 ] } },
{ "type": "Feature", "properties": { "id": 49 }, "geometry": { "type": "Point", "coordinates": [ 6.788356, 49.284997 ] } },
{ "type": "Feature", "properties": { "id": 50 }, "geometry": { "type": "Point", "coordinates": [ 6.621849, 48.90288 ] } },
{ "type": "Feature", "properties": { "id": 51 }, "geometry": { "type": "Point", "coordinates": [ 6.231629, 48.751729 ] } },
{ "type": "Feature", "properties": { "id": 52 }, "geometry": { "type": "Point", "coordinates": [ 6.767739, 48.968777 ] } },
{ "type": "Feature", "properties": { "id": 53 }, "geometry": { "type": "Point", "coordinates": [ 6.984232, 49.054685 ] } },
{ "type": "Feature", "properties": { "id": 54 }, "geometry": { "type": "Point", "coordinates": [ 6.401946, 49.152459 ] } },
{ "type": "Feature", "properties": { "id": 55 }, "geometry": { "type": "Point", "coordinates": [ 7.139776, 48.838839 ] } },
{ "type": "Feature", "properties": { "id": 56 }, "geometry": { "type": "Point", "coordinates": [ 6.277021, 48.671895 ] } },
{ "type": "Feature", "properties": { "id": 57 }, "geometry": { "type": "Point", "coordinates": [ 6.11967, 49.065639 ] } },
{ "type": "Feature", "properties": { "id": 58 }, "geometry": { "type": "Point", "coordinates": [ 7.068033, 49.317495 ] } },
{ "type": "Feature", "properties": { "id": 59 }, "geometry": { "type": "Point", "coordinates": [ 6.470375, 48.884257 ] } },
{ "type": "Feature", "properties": { "id": 60 }, "geometry": { "type": "Point", "coordinates": [ 6.058382, 49.118945 ] } },
{ "type": "Feature", "properties": { "id": 61 }, "geometry": { "type": "Point", "coordinates": [ 6.387207, 48.825129 ] } },
{ "type": "Feature", "properties": { "id": 62 }, "geometry": { "type": "Point", "coordinates": [ 6.137436, 49.155044 ] } },
{ "type": "Feature", "properties": { "id": 63 }, "geometry": { "type": "Point", "coordinates": [ 6.314069, 49.132 ] } },
{ "type": "Feature", "properties": { "id": 64 }, "geometry": { "type": "Point", "coordinates": [ 6.618791, 48.555711 ] } },
{ "type": "Feature", "properties": { "id": 65 }, "geometry": { "type": "Point", "coordinates": [ 6.834316, 49.279706 ] } },
{ "type": "Feature", "properties": { "id": 66 }, "geometry": { "type": "Point", "coordinates": [ 6.486747, 49.259932 ] } },
{ "type": "Feature", "properties": { "id": 67 }, "geometry": { "type": "Point", "coordinates": [ 6.026601, 49.236973 ] } },
{ "type": "Feature", "properties": { "id": 68 }, "geometry": { "type": "Point", "coordinates": [ 6.56269, 48.707912 ] } },
{ "type": "Feature", "properties": { "id": 69 }, "geometry": { "type": "Point", "coordinates": [ 7.079706, 48.728793 ] } },
{ "type": "Feature", "properties": { "id": 70 }, "geometry": { "type": "Point", "coordinates": [ 6.472134, 49.137721 ] } },
{ "type": "Feature", "properties": { "id": 71 }, "geometry": { "type": "Point", "coordinates": [ 6.197359, 49.287014 ] } },
{ "type": "Feature", "properties": { "id": 72 }, "geometry": { "type": "Point", "coordinates": [ 6.001429, 48.844151 ] } },
{ "type": "Feature", "properties": { "id": 73 }, "geometry": { "type": "Point", "coordinates": [ 7.177539, 48.510045 ] } },
{ "type": "Feature", "properties": { "id": 74 }, "geometry": { "type": "Point", "coordinates": [ 6.215882, 48.91431 ] } },
{ "type": "Feature", "properties": { "id": 75 }, "geometry": { "type": "Point", "coordinates": [ 6.138933, 49.025252 ] } },
{ "type": "Feature", "properties": { "id": 76 }, "geometry": { "type": "Point", "coordinates": [ 6.238858, 48.943775 ] } },
{ "type": "Feature", "properties": { "id": 77 }, "geometry": { "type": "Point", "coordinates": [ 5.987626, 48.589497 ] } },
{ "type": "Feature", "properties": { "id": 78 }, "geometry": { "type": "Point", "coordinates": [ 5.821971, 49.110829 ] } },
{ "type": "Feature", "properties": { "id": 79 }, "geometry": { "type": "Point", "coordinates": [ 6.350642, 49.323613 ] } },
{ "type": "Feature", "properties": { "id": 80 }, "geometry": { "type": "Point", "coordinates": [ 6.077705, 49.273679 ] } },
{ "type": "Feature", "properties": { "id": 81 }, "geometry": { "type": "Point", "coordinates": [ 6.489287, 49.119458 ] } },
{ "type": "Feature", "properties": { "id": 82 }, "geometry": { "type": "Point", "coordinates": [ 7.060872, 48.861237 ] } },
{ "type": "Feature", "properties": { "id": 83 }, "geometry": { "type": "Point", "coordinates": [ 6.564464, 48.794207 ] } },
{ "type": "Feature", "properties": { "id": 84 }, "geometry": { "type": "Point", "coordinates": [ 6.573726, 49.257275 ] } },
{ "type": "Feature", "properties": { "id": 85 }, "geometry": { "type": "Point", "coordinates": [ 5.825562, 48.987328 ] } },
{ "type": "Feature", "properties": { "id": 86 }, "geometry": { "type": "Point", "coordinates": [ 7.254455, 48.97259 ] } },
{ "type": "Feature", "properties": { "id": 87 }, "geometry": { "type": "Point", "coordinates": [ 6.248734, 48.562071 ] } },
{ "type": "Feature", "properties": { "id": 88 }, "geometry": { "type": "Point", "coordinates": [ 6.15217, 48.949363 ] } },
{ "type": "Feature", "properties": { "id": 89 }, "geometry": { "type": "Point", "coordinates": [ 6.39623, 49.216974 ] } },
{ "type": "Feature", "properties": { "id": 90 }, "geometry": { "type": "Point", "coordinates": [ 6.30656, 48.950267 ] } },
{ "type": "Feature", "properties": { "id": 91 }, "geometry": { "type": "Point", "coordinates": [ 7.26703, 48.620877 ] } },
{ "type": "Feature", "properties": { "id": 92 }, "geometry": { "type": "Point", "coordinates": [ 6.995658, 49.257687 ] } },
{ "type": "Feature", "properties": { "id": 93 }, "geometry": { "type": "Point", "coordinates": [ 6.972653, 49.1466 ] } },
{ "type": "Feature", "properties": { "id": 94 }, "geometry": { "type": "Point", "coordinates": [ 7.221109, 49.061413 ] } },
{ "type": "Feature", "properties": { "id": 95 }, "geometry": { "type": "Point", "coordinates": [ 6.39567, 49.116093 ] } },
{ "type": "Feature", "properties": { "id": 96 }, "geometry": { "type": "Point", "coordinates": [ 7.061231, 48.842328 ] } },
{ "type": "Feature", "properties": { "id": 97 }, "geometry": { "type": "Point", "coordinates": [ 6.217753, 49.217784 ] } },
{ "type": "Feature", "properties": { "id": 98 }, "geometry": { "type": "Point", "coordinates": [ 7.260607, 49.049141 ] } },
{ "type": "Feature", "properties": { "id": 99 }, "geometry": { "type": "Point", "coordinates": [ 6.290521, 48.756132 ] } },
{ "type": "Feature", "properties": { "id": 100 }, "geometry": { "type": "Point", "coordinates": [ 6.865217, 48.546048 ] } },
{ "type": "Feature", "properties": { "id": 101 }, "geometry": { "type": "Point", "coordinates": [ 5.917753, 48.779705 ] } },
{ "type": "Feature", "properties": { "id": 102 }, "geometry": { "type": "Point", "coordinates": [ 6.904236, 48.750849 ] } },
{ "type": "Feature", "properties": { "id": 103 }, "geometry": { "type": "Point", "coordinates": [ 6.148568, 49.327022 ] } },
{ "type": "Feature", "properties": { "id": 104 }, "geometry": { "type": "Point", "coordinates": [ 5.854214, 49.231083 ] } },
{ "type": "Feature", "properties": { "id": 105 }, "geometry": { "type": "Point", "coordinates": [ 5.792077, 48.918462 ] } },
{ "type": "Feature", "properties": { "id": 106 }, "geometry": { "type": "Point", "coordinates": [ 6.606912, 49.234066 ] } },
{ "type": "Feature", "properties": { "id": 107 }, "geometry": { "type": "Point", "coordinates": [ 5.773913, 49.021531 ] } },
{ "type": "Feature", "properties": { "id": 108 }, "geometry": { "type": "Point", "coordinates": [ 6.543797, 48.691976 ] } },
{ "type": "Feature", "properties": { "id": 109 }, "geometry": { "type": "Point", "coordinates": [ 6.607093, 48.942406 ] } },
{ "type": "Feature", "properties": { "id": 110 }, "geometry": { "type": "Point", "coordinates": [ 6.926892, 49.314515 ] } },
{ "type": "Feature", "properties": { "id": 111 }, "geometry": { "type": "Point", "coordinates": [ 6.995916, 48.577377 ] } },
{ "type": "Feature", "properties": { "id": 112 }, "geometry": { "type": "Point", "coordinates": [ 5.768701, 49.117645 ] } },
{ "type": "Feature", "properties": { "id": 113 }, "geometry": { "type": "Point", "coordinates": [ 5.785123, 48.572889 ] } },
{ "type": "Feature", "properties": { "id": 114 }, "geometry": { "type": "Point", "coordinates": [ 6.821146, 49.146636 ] } },
{ "type": "Feature", "properties": { "id": 115 }, "geometry": { "type": "Point", "coordinates": [ 6.814564, 48.677706 ] } },
{ "type": "Feature", "properties": { "id": 116 }, "geometry": { "type": "Point", "coordinates": [ 7.198982, 48.795354 ] } },
{ "type": "Feature", "properties": { "id": 117 }, "geometry": { "type": "Point", "coordinates": [ 7.298167, 48.834966 ] } },
{ "type": "Feature", "properties": { "id": 118 }, "geometry": { "type": "Point", "coordinates": [ 6.961092, 48.821185 ] } },
{ "type": "Feature", "properties": { "id": 119 }, "geometry": { "type": "Point", "coordinates": [ 6.167241, 49.098887 ] } },
{ "type": "Feature", "properties": { "id": 120 }, "geometry": { "type": "Point", "coordinates": [ 6.915724, 48.955468 ] } },
{ "type": "Feature", "properties": { "id": 121 }, "geometry": { "type": "Point", "coordinates": [ 6.874041, 48.56791 ] } },
{ "type": "Feature", "properties": { "id": 122 }, "geometry": { "type": "Point", "coordinates": [ 7.304566, 48.576355 ] } },
{ "type": "Feature", "properties": { "id": 123 }, "geometry": { "type": "Point", "coordinates": [ 6.665223, 49.013163 ] } },
{ "type": "Feature", "properties": { "id": 124 }, "geometry": { "type": "Point", "coordinates": [ 6.813672, 48.606099 ] } },
{ "type": "Feature", "properties": { "id": 125 }, "geometry": { "type": "Point", "coordinates": [ 7.27544, 48.776108 ] } },
{ "type": "Feature", "properties": { "id": 126 }, "geometry": { "type": "Point", "coordinates": [ 6.789297, 48.671072 ] } },
{ "type": "Feature", "properties": { "id": 127 }, "geometry": { "type": "Point", "coordinates": [ 5.964955, 48.530571 ] } },
{ "type": "Feature", "properties": { "id": 128 }, "geometry": { "type": "Point", "coordinates": [ 6.99479, 48.869219 ] } },
{ "type": "Feature", "properties": { "id": 129 }, "geometry": { "type": "Point", "coordinates": [ 6.623607, 48.556771 ] } },
{ "type": "Feature", "properties": { "id": 130 }, "geometry": { "type": "Point", "coordinates": [ 5.873866, 49.050835 ] } },
{ "type": "Feature", "properties": { "id": 131 }, "geometry": { "type": "Point", "coordinates": [ 6.18803, 48.72121 ] } },
{ "type": "Feature", "properties": { "id": 132 }, "geometry": { "type": "Point", "coordinates": [ 7.252517, 49.141308 ] } },
{ "type": "Feature", "properties": { "id": 133 }, "geometry": { "type": "Point", "coordinates": [ 6.167953, 48.773808 ] } },
{ "type": "Feature", "properties": { "id": 134 }, "geometry": { "type": "Point", "coordinates": [ 6.464546, 48.986961 ] } },
{ "type": "Feature", "properties": { "id": 135 }, "geometry": { "type": "Point", "coordinates": [ 6.799715, 48.677933 ] } },
{ "type": "Feature", "properties": { "id": 136 }, "geometry": { "type": "Point", "coordinates": [ 6.801377, 48.848303 ] } },
{ "type": "Feature", "properties": { "id": 137 }, "geometry": { "type": "Point", "coordinates": [ 6.748945, 48.986858 ] } },
{ "type": "Feature", "properties": { "id": 138 }, "geometry": { "type": "Point", "coordinates": [ 7.31302, 49.242055 ] } },
{ "type": "Feature", "properties": { "id": 139 }, "geometry": { "type": "Point", "coordinates": [ 5.831997, 49.037581 ] } },
{ "type": "Feature", "properties": { "id": 140 }, "geometry": { "type": "Point", "coordinates": [ 6.495943, 49.0869 ] } },
{ "type": "Feature", "properties": { "id": 141 }, "geometry": { "type": "Point", "coordinates": [ 7.011415, 48.74727 ] } },
{ "type": "Feature", "properties": { "id": 142 }, "geometry": { "type": "Point", "coordinates": [ 7.347584, 48.688814 ] } },
{ "type": "Feature", "properties": { "id": 143 }, "geometry": { "type": "Point", "coordinates": [ 7.260202, 48.533603 ] } },
{ "type": "Feature", "properties": { "id": 144 }, "geometry": { "type": "Point", "coordinates": [ 6.063315, 49.053575 ] } },
{ "type": "Feature", "properties": { "id": 145 }, "geometry": { "type": "Point", "coordinates": [ 6.582126, 48.516314 ] } },
{ "type": "Feature", "properties": { "id": 146 }, "geometry": { "type": "Point", "coordinates": [ 7.194714, 48.998294 ] } },
{ "type": "Feature", "properties": { "id": 147 }, "geometry": { "type": "Point", "coordinates": [ 5.777353, 49.205118 ] } },
{ "type": "Feature", "properties": { "id": 148 }, "geometry": { "type": "Point", "coordinates": [ 6.926936, 48.731272 ] } },
{ "type": "Feature", "properties": { "id": 149 }, "geometry": { "type": "Point", "coordinates": [ 6.639854, 49.25554 ] } },
{ "type": "Feature", "properties": { "id": 150 }, "geometry": { "type": "Point", "coordinates": [ 6.004894, 48.530339 ] } },
{ "type": "Feature", "properties": { "id": 151 }, "geometry": { "type": "Point", "coordinates": [ 5.921775, 49.359465 ] } },
{ "type": "Feature", "properties": { "id": 152 }, "geometry": { "type": "Point", "coordinates": [ 6.078533, 49.263409 ] } },
{ "type": "Feature", "properties": { "id": 153 }, "geometry": { "type": "Point", "coordinates": [ 5.84021, 48.757019 ] } },
{ "type": "Feature", "properties": { "id": 154 }, "geometry": { "type": "Point", "coordinates": [ 6.04131, 48.920716 ] } },
{ "type": "Feature", "properties": { "id": 155 }, "geometry": { "type": "Point", "coordinates": [ 6.345152, 48.563883 ] } },
{ "type": "Feature", "properties": { "id": 156 }, "geometry": { "type": "Point", "coordinates": [ 7.288271, 49.23274 ] } },
{ "type": "Feature", "properties": { "id": 157 }, "geometry": { "type": "Point", "coordinates": [ 6.868442, 48.941593 ] } },
{ "type": "Feature", "properties": { "id": 158 }, "geometry": { "type": "Point", "coordinates": [ 6.664505, 49.148669 ] } },
{ "type": "Feature", "properties": { "id": 159 }, "geometry": { "type": "Point", "coordinates": [ 6.543225, 49.304295 ] } },
{ "type": "Feature", "properties": { "id": 160 }, "geometry": { "type": "Point", "coordinates": [ 6.044396, 48.512426 ] } },
{ "type": "Feature", "properties": { "id": 161 }, "geometry": { "type": "Point", "coordinates": [ 5.937959, 49.091881 ] } },
{ "type": "Feature", "properties": { "id": 162 }, "geometry": { "type": "Point", "coordinates": [ 6.16189, 49.349018 ] } },
{ "type": "Feature", "properties": { "id": 163 }, "geometry": { "type": "Point", "coordinates": [ 7.157977, 48.836809 ] } },
{ "type": "Feature", "properties": { "id": 164 }, "geometry": { "type": "Point", "coordinates": [ 7.072708, 48.921452 ] } },
{ "type": "Feature", "properties": { "id": 165 }, "geometry": { "type": "Point", "coordinates": [ 7.219491, 48.582578 ] } },
{ "type": "Feature", "properties": { "id": 166 }, "geometry": { "type": "Point", "coordinates": [ 6.221996, 48.921934 ] } },
{ "type": "Feature", "properties": { "id": 167 }, "geometry": { "type": "Point", "coordinates": [ 5.770537, 48.761719 ] } },
{ "type": "Feature", "properties": { "id": 168 }, "geometry": { "type": "Point", "coordinates": [ 6.796087, 48.999661 ] } },
{ "type": "Feature", "properties": { "id": 169 }, "geometry": { "type": "Point", "coordinates": [ 7.183573, 49.11067 ] } },
{ "type": "Feature", "properties": { "id": 170 }, "geometry": { "type": "Point", "coordinates": [ 5.753261, 49.178918 ] } },
{ "type": "Feature", "properties": { "id": 171 }, "geometry": { "type": "Point", "coordinates": [ 6.026912, 48.776281 ] } },
{ "type": "Feature", "properties": { "id": 172 }, "geometry": { "type": "Point", "coordinates": [ 6.492057, 48.994175 ] } },
{ "type": "Feature", "properties": { "id": 173 }, "geometry": { "type": "Point", "coordinates": [ 5.823627, 49.149142 ] } },
{ "type": "Feature", "properties": { "id": 174 }, "geometry": { "type": "Point", "coordinates": [ 6.311407, 49.243875 ] } },
{ "type": "Feature", "properties": { "id": 175 }, "geometry": { "type": "Point", "coordinates": [ 6.988052, 49.152549 ] } },
{ "type": "Feature", "properties": { "id": 176 }, "geometry": { "type": "Point", "coordinates": [ 6.973904, 49.150085 ] } },
{ "type": "Feature", "properties": { "id": 177 }, "geometry": { "type": "Point", "coordinates": [ 6.036755, 48.91293 ] } },
{ "type": "Feature", "properties": { "id": 178 }, "geometry": { "type": "Point", "coordinates": [ 6.387509, 48.590859 ] } },
{ "type": "Feature", "properties": { "id": 179 }, "geometry": { "type": "Point", "coordinates": [ 6.931829, 49.000551 ] } },
{ "type": "Feature", "properties": { "id": 180 }, "geometry": { "type": "Point", "coordinates": [ 6.693015, 49.395099 ] } },
{ "type": "Feature", "properties": { "id": 181 }, "geometry": { "type": "Point", "coordinates": [ 6.066553, 49.156652 ] } },
{ "type": "Feature", "properties": { "id": 182 }, "geometry": { "type": "Point", "coordinates": [ 6.667934, 48.619348 ] } },
{ "type": "Feature", "properties": { "id": 183 }, "geometry": { "type": "Point", "coordinates": [ 6.088027, 49.05269 ] } },
{ "type": "Feature", "properties": { "id": 184 }, "geometry": { "type": "Point", "coordinates": [ 6.417646, 49.186918 ] } },
{ "type": "Feature", "properties": { "id": 185 }, "geometry": { "type": "Point", "coordinates": [ 6.651008, 48.647854 ] } },
{ "type": "Feature", "properties": { "id": 186 }, "geometry": { "type": "Point", "coordinates": [ 6.256043, 48.79038 ] } },
{ "type": "Feature", "properties": { "id": 187 }, "geometry": { "type": "Point", "coordinates": [ 6.881662, 48.64966 ] } },
{ "type": "Feature", "properties": { "id": 188 }, "geometry": { "type": "Point", "coordinates": [ 6.031756, 48.676537 ] } },
{ "type": "Feature", "properties": { "id": 189 }, "geometry": { "type": "Point", "coordinates": [ 5.95701, 49.266274 ] } },
{ "type": "Feature", "properties": { "id": 190 }, "geometry": { "type": "Point", "coordinates": [ 6.314232, 48.739388 ] } },
{ "type": "Feature", "properties": { "id": 191 }, "geometry": { "type": "Point", "coordinates": [ 7.238477, 49.215189 ] } },
{ "type": "Feature", "properties": { "id": 192 }, "geometry": { "type": "Point", "coordinates": [ 6.400924, 48.584552 ] } },
{ "type": "Feature", "properties": { "id": 193 }, "geometry": { "type": "Point", "coordinates": [ 6.604964, 49.089398 ] } },
{ "type": "Feature", "properties": { "id": 194 }, "geometry": { "type": "Point", "coordinates": [ 7.173383, 48.667469 ] } },
{ "type": "Feature", "properties": { "id": 195 }, "geometry": { "type": "Point", "coordinates": [ 5.794531, 49.125714 ] } },
{ "type": "Feature", "properties": { "id": 196 }, "geometry": { "type": "Point", "coordinates": [ 5.962632, 49.025182 ] } },
{ "type": "Feature", "properties": { "id": 197 }, "geometry": { "type": "Point", "coordinates": [ 7.029193, 49.172715 ] } },
{ "type": "Feature", "properties": { "id": 198 }, "geometry": { "type": "Point", "coordinates": [ 6.794249, 48.837463 ] } },
{ "type": "Feature", "properties": { "id": 199 }, "geometry": { "type": "Point", "coordinates": [ 6.401452, 49.255929 ] } },
{ "type": "Feature", "properties": { "id": 200 }, "geometry": { "type": "Point", "coordinates": [ 6.331921, 49.212932 ] } },
{ "type": "Feature", "properties": { "id": 201 }, "geometry": { "type": "Point", "coordinates": [ 6.296609, 48.533575 ] } },
{ "type": "Feature", "properties": { "id": 202 }, "geometry": { "type": "Point", "coordinates": [ 6.206137, 49.118194 ] } },
{ "type": "Feature", "properties": { "id": 203 }, "geometry": { "type": "Point", "coordinates": [ 6.465854, 48.62371 ] } },
{ "type": "Feature", "properties": { "id": 204 }, "geometry": { "type": "Point", "coordinates": [ 7.338197, 48.613059 ] } },
{ "type": "Feature", "properties": { "id": 205 }, "geometry": { "type": "Point", "coordinates": [ 7.023887, 49.314865 ] } },
{ "type": "Feature", "properties": { "id": 206 }, "geometry": { "type": "Point", "coordinates": [ 5.862775, 48.879037 ] } },
{ "type": "Feature", "properties": { "id": 207 }, "geometry": { "type": "Point", "coordinates": [ 6.144616, 48.745105 ] } },
{ "type": "Feature", "properties": { "id": 208 }, "geometry": { "type": "Point", "coordinates": [ 6.291024, 49.215529 ] } },
{ "type": "Feature", "properties": { "id": 209 }, "geometry": { "type": "Point", "coordinates": [ 7.04575, 49.316081 ] } },
{ "type": "Feature", "properties": { "id": 210 }, "geometry": { "type": "Point", "coordinates": [ 5.869647, 49.334631 ] } },
{ "type": "Feature", "properties": { "id": 211 }, "geometry": { "type": "Point", "coordinates": [ 6.554478, 48.525889 ] } },
{ "type": "Feature", "properties": { "id": 212 }, "geometry": { "type": "Point", "coordinates": [ 6.153567, 48.998396 ] } },
{ "type": "Feature", "properties": { "id": 213 }, "geometry": { "type": "Point", "coordinates": [ 6.852272, 48.708325 ] } },
{ "type": "Feature", "properties": { "id": 214 }, "geometry": { "type": "Point", "coordinates": [ 6.529688, 49.378965 ] } },
{ "type": "Feature", "properties": { "id": 215 }, "geometry": { "type": "Point", "coordinates": [ 6.680837, 48.924607 ] } },
{ "type": "Feature", "properties": { "id": 216 }, "geometry": { "type": "Point", "coordinates": [ 7.057171, 49.14152 ] } },
{ "type": "Feature", "properties": { "id": 217 }, "geometry": { "type": "Point", "coordinates": [ 6.584904, 48.973454 ] } },
{ "type": "Feature", "properties": { "id": 218 }, "geometry": { "type": "Point", "coordinates": [ 7.34147, 48.598766 ] } },
{ "type": "Feature", "properties": { "id": 219 }, "geometry": { "type": "Point", "coordinates": [ 5.824989, 49.291684 ] } },
{ "type": "Feature", "properties": { "id": 220 }, "geometry": { "type": "Point", "coordinates": [ 7.328844, 49.285049 ] } },
{ "type": "Feature", "properties": { "id": 221 }, "geometry": { "type": "Point", "coordinates": [ 6.435741, 48.935368 ] } },
{ "type": "Feature", "properties": { "id": 222 }, "geometry": { "type": "Point", "coordinates": [ 6.623387, 48.828614 ] } },
{ "type": "Feature", "properties": { "id": 223 }, "geometry": { "type": "Point", "coordinates": [ 6.437688, 48.544807 ] } },
{ "type": "Feature", "properties": { "id": 224 }, "geometry": { "type": "Point", "coordinates": [ 7.348204, 49.120273 ] } },
{ "type": "Feature", "properties": { "id": 225 }, "geometry": { "type": "Point", "coordinates": [ 6.074108, 48.549084 ] } },
{ "type": "Feature", "properties": { "id": 226 }, "geometry": { "type": "Point", "coordinates": [ 5.813814, 49.356226 ] } },
{ "type": "Feature", "properties": { "id": 227 }, "geometry": { "type": "Point", "coordinates": [ 6.638757, 49.108917 ] } },
{ "type": "Feature", "properties": { "id": 228 }, "geometry": { "type": "Point", "coordinates": [ 6.235894, 48.910929 ] } },
{ "type": "Feature", "properties": { "id": 229 }, "geometry": { "type": "Point", "coordinates": [ 5.821141, 49.009143 ] } },
{ "type": "Feature", "properties": { "id": 230 }, "geometry": { "type": "Point", "coordinates": [ 6.251626, 48.537732 ] } },
{ "type": "Feature", "properties": { "id": 231 }, "geometry": { "type": "Point", "coordinates": [ 7.289507, 49.268051 ] } },
{ "type": "Feature", "properties": { "id": 232 }, "geometry": { "type": "Point", "coordinates": [ 5.959612, 48.719226 ] } },
{ "type": "Feature", "properties": { "id": 233 }, "geometry": { "type": "Point", "coordinates": [ 7.077048, 49.262528 ] } },
{ "type": "Feature", "properties": { "id": 234 }, "geometry": { "type": "Point", "coordinates": [ 7.030424, 48.637761 ] } },
{ "type": "Feature", "properties": { "id": 235 }, "geometry": { "type": "Point", "coordinates": [ 6.36843, 48.635085 ] } },
{ "type": "Feature", "properties": { "id": 236 }, "geometry": { "type": "Point", "coordinates": [ 6.741182, 49.253724 ] } },
{ "type": "Feature", "properties": { "id": 237 }, "geometry": { "type": "Point", "coordinates": [ 6.420565, 48.595196 ] } },
{ "type": "Feature", "properties": { "id": 238 }, "geometry": { "type": "Point", "coordinates": [ 6.000547, 49.208842 ] } },
{ "type": "Feature", "properties": { "id": 239 }, "geometry": { "type": "Point", "coordinates": [ 6.968523, 49.0602 ] } },
{ "type": "Feature", "properties": { "id": 240 }, "geometry": { "type": "Point", "coordinates": [ 6.985579, 49.341389 ] } },
{ "type": "Feature", "properties": { "id": 241 }, "geometry": { "type": "Point", "coordinates": [ 6.238864, 48.772355 ] } },
{ "type": "Feature", "properties": { "id": 242 }, "geometry": { "type": "Point", "coordinates": [ 6.130854, 49.069844 ] } },
{ "type": "Feature", "properties": { "id": 243 }, "geometry": { "type": "Point", "coordinates": [ 6.494957, 49.115294 ] } },
{ "type": "Feature", "properties": { "id": 244 }, "geometry": { "type": "Point", "coordinates": [ 6.736464, 49.211332 ] } },
{ "type": "Feature", "properties": { "id": 245 }, "geometry": { "type": "Point", "coordinates": [ 7.122719, 48.898056 ] } },
{ "type": "Feature", "properties": { "id": 246 }, "geometry": { "type": "Point", "coordinates": [ 6.270983, 48.524987 ] } },
{ "type": "Feature", "properties": { "id": 247 }, "geometry": { "type": "Point", "coordinates": [ 7.330774, 48.776696 ] } },
{ "type": "Feature", "properties": { "id": 248 }, "geometry": { "type": "Point", "coordinates": [ 7.000272, 48.599911 ] } },
{ "type": "Feature", "properties": { "id": 249 }, "geometry": { "type": "Point", "coordinates": [ 6.662706, 48.809474 ] } },
{ "type": "Feature", "properties": { "id": 250 }, "geometry": { "type": "Point", "coordinates": [ 6.557649, 49.356612 ] } },
{ "type": "Feature", "properties": { "id": 251 }, "geometry": { "type": "Point", "coordinates": [ 5.839226, 48.700635 ] } },
{ "type": "Feature", "properties": { "id": 252 }, "geometry": { "type": "Point", "coordinates": [ 6.790862, 49.233279 ] } },
{ "type": "Feature", "properties": { "id": 253 }, "geometry": { "type": "Point", "coordinates": [ 7.269357, 49.17519 ] } },
{ "type": "Feature", "properties": { "id": 254 }, "geometry": { "type": "Point", "coordinates": [ 5.780769, 48.708086 ] } },
{ "type": "Feature", "properties": { "id": 255 }, "geometry": { "type": "Point", "coordinates": [ 6.711089, 48.653712 ] } },
{ "type": "Feature", "properties": { "id": 256 }, "geometry": { "type": "Point", "coordinates": [ 6.757338, 48.739509 ] } },
{ "type": "Feature", "properties": { "id": 257 }, "geometry": { "type": "Point", "coordinates": [ 5.923713, 49.092722 ] } },
{ "type": "Feature", "properties": { "id": 258 }, "geometry": { "type": "Point", "coordinates": [ 6.060481, 48.558254 ] } },
{ "type": "Feature", "properties": { "id": 259 }, "geometry": { "type": "Point", "coordinates": [ 7.115406, 49.278516 ] } },
{ "type": "Feature", "properties": { "id": 260 }, "geometry": { "type": "Point", "coordinates": [ 6.255184, 49.15333 ] } },
{ "type": "Feature", "properties": { "id": 261 }, "geometry": { "type": "Point", "coordinates": [ 7.214627, 48.643905 ] } },
{ "type": "Feature", "properties": { "id": 262 }, "geometry": { "type": "Point", "coordinates": [ 5.953437, 48.923364 ] } },
{ "type": "Feature", "properties": { "id": 263 }, "geometry": { "type": "Point", "coordinates": [ 5.971477, 49.24269 ] } },
{ "type": "Feature", "properties": { "id": 264 }, "geometry": { "type": "Point", "coordinates": [ 6.99682, 48.987876 ] } },
{ "type": "Feature", "properties": { "id": 265 }, "geometry": { "type": "Point", "coordinates": [ 6.279367, 49.186745 ] } },
{ "type": "Feature", "properties": { "id": 266 }, "geometry": { "type": "Point", "coordinates": [ 5.979243, 49.353539 ] } },
{ "type": "Feature", "properties": { "id": 267 }, "geometry": { "type": "Point", "coordinates": [ 6.042294, 49.049305 ] } },
{ "type": "Feature", "properties": { "id": 268 }, "geometry": { "type": "Point", "coordinates": [ 6.404905, 49.069317 ] } },
{ "type": "Feature", "properties": { "id": 269 }, "geometry": { "type": "Point", "coordinates": [ 7.044224, 49.358404 ] } },
{ "type": "Feature", "properties": { "id": 270 }, "geometry": { "type": "Point", "coordinates": [ 6.515072, 48.579803 ] } },
{ "type": "Feature", "properties": { "id": 271 }, "geometry": { "type": "Point", "coordinates": [ 6.110045, 48.794749 ] } },
{ "type": "Feature", "properties": { "id": 272 }, "geometry": { "type": "Point", "coordinates": [ 6.515456, 48.549597 ] } },
{ "type": "Feature", "properties": { "id": 273 }, "geometry": { "type": "Point", "coordinates": [ 7.148048, 48.606368 ] } },
{ "type": "Feature", "properties": { "id": 274 }, "geometry": { "type": "Point", "coordinates": [ 6.070525, 49.308773 ] } },
{ "type": "Feature", "properties": { "id": 275 }, "geometry": { "type": "Point", "coordinates": [ 6.942484, 48.915995 ] } },
{ "type": "Feature", "properties": { "id": 276 }, "geometry": { "type": "Point", "coordinates": [ 6.607436, 48.692122 ] } },
{ "type": "Feature", "properties": { "id": 277 }, "geometry": { "type": "Point", "coordinates": [ 6.474278, 48.59196 ] } },
{ "type": "Feature", "properties": { "id": 278 }, "geometry": { "type": "Point", "coordinates": [ 6.02777, 48.84904 ] } },
{ "type": "Feature", "properties": { "id": 279 }, "geometry": { "type": "Point", "coordinates": [ 6.236141, 48.63654 ] } },
{ "type": "Feature", "properties": { "id": 280 }, "geometry": { "type": "Point", "coordinates": [ 6.833104, 49.323336 ] } },
{ "type": "Feature", "properties": { "id": 281 }, "geometry": { "type": "Point", "coordinates": [ 7.116911, 48.922053 ] } },
{ "type": "Feature", "properties": { "id": 282 }, "geometry": { "type": "Point", "coordinates": [ 7.019162, 48.82566 ] } },
{ "type": "Feature", "properties": { "id": 283 }, "geometry": { "type": "Point", "coordinates": [ 7.244544, 48.857624 ] } },
{ "type": "Feature", "properties": { "id": 284 }, "geometry": { "type": "Point", "coordinates": [ 6.596605, 48.91229 ] } },
{ "type": "Feature", "properties": { "id": 285 }, "geometry": { "type": "Point", "coordinates": [ 6.111587, 48.879583 ] } },
{ "type": "Feature", "properties": { "id": 286 }, "geometry": { "type": "Point", "coordinates": [ 7.053689, 49.284274 ] } },
{ "type": "Feature", "properties": { "id": 287 }, "geometry": { "type": "Point", "coordinates": [ 6.340835, 48.550087 ] } },
{ "type": "Feature", "properties": { "id": 288 }, "geometry": { "type": "Point", "coordinates": [ 6.84051, 48.949279 ] } },
{ "type": "Feature", "properties": { "id": 289 }, "geometry": { "type": "Point", "coordinates": [ 6.717406, 49.384814 ] } },
{ "type": "Feature", "properties": { "id": 290 }, "geometry": { "type": "Point", "coordinates": [ 6.668159, 48.785248 ] } },
{ "type": "Feature", "properties": { "id": 291 }, "geometry": { "type": "Point", "coordinates": [ 7.034331, 48.683128 ] } },
{ "type": "Feature", "properties": { "id": 292 }, "geometry": { "type": "Point", "coordinates": [ 7.236056, 48.59664 ] } },
{ "type": "Feature", "properties": { "id": 293 }, "geometry": { "type": "Point", "coordinates": [ 5.868408, 49.095122 ] } },
{ "type": "Feature", "properties": { "id": 294 }, "geometry": { "type": "Point", "coordinates": [ 6.739239, 48.606452 ] } },
{ "type": "Feature", "properties": { "id": 295 }, "geometry": { "type": "Point", "coordinates": [ 6.226189, 49.370463 ] } },
{ "type": "Feature", "properties": { "id": 296 }, "geometry": { "type": "Point", "coordinates": [ 5.810579, 48.978592 ] } },
{ "type": "Feature", "properties": { "id": 297 }, "geometry": { "type": "Point", "coordinates": [ 6.860795, 48.700813 ] } },
{ "type": "Feature", "properties": { "id": 298 }, "geometry": { "type": "Point", "coordinates": [ 6.723295, 49.057374 ] } },
{ "type": "Feature", "properties": { "id": 299 }, "geometry": { "type": "Point", "coordinates": [ 7.079169, 49.042098 ] } },
{ "type": "Feature", "properties": { "id": 300 }, "geometry": { "type": "Point", "coordinates": [ 6.554401, 49.178677 ] } },
{ "type": "Feature", "properties": { "id": 301 }, "geometry": { "type": "Point", "coordinates": [ 6.757394, 49.157197 ] } },
{ "type": "Feature", "properties": { "id": 302 }, "geometry": { "type": "Point", "coordinates": [ 6.758635, 48.811635 ] } },
{ "type": "Feature", "properties": { "id": 303 }, "geometry": { "type": "Point", "coordinates": [ 6.064447, 49.35732 ] } },
{ "type": "Feature", "properties": { "id": 304 }, "geometry": { "type": "Point", "coordinates": [ 7.180588, 48.888652 ] } },
{ "type": "Feature", "properties": { "id": 305 }, "geometry": { "type": "Point", "coordinates": [ 6.366811, 48.965461 ] } },
{ "type": "Feature", "properties": { "id": 306 }, "geometry": { "type": "Point", "coordinates": [ 6.796601, 49.170895 ] } },
{ "type": "Feature", "properties": { "id": 307 }, "geometry": { "type": "Point", "coordinates": [ 6.132094, 49.106377 ] } },
{ "type": "Feature", "properties": { "id": 308 }, "geometry": { "type": "Point", "coordinates": [ 6.248959, 48.928975 ] } },
{ "type": "Feature", "properties": { "id": 309 }, "geometry": { "type": "Point", "coordinates": [ 6.360108, 49.139735 ] } },
{ "type": "Feature", "properties": { "id": 310 }, "geometry": { "type": "Point", "coordinates": [ 6.408492, 48.886039 ] } },
{ "type": "Feature", "properties": { "id": 311 }, "geometry": { "type": "Point", "coordinates": [ 6.726124, 49.110069 ] } },
{ "type": "Feature", "properties": { "id": 312 }, "geometry": { "type": "Point", "coordinates": [ 7.32939, 48.92478 ] } },
{ "type": "Feature", "properties": { "id": 313 }, "geometry": { "type": "Point", "coordinates": [ 6.232863, 48.881318 ] } },
{ "type": "Feature", "properties": { "id": 314 }, "geometry": { "type": "Point", "coordinates": [ 5.93303, 49.170845 ] } },
{ "type": "Feature", "properties": { "id": 315 }, "geometry": { "type": "Point", "coordinates": [ 7.076035, 48.820548 ] } },
{ "type": "Feature", "properties": { "id": 316 }, "geometry": { "type": "Point", "coordinates": [ 6.527257, 48.587239 ] } },
{ "type": "Feature", "properties": { "id": 317 }, "geometry": { "type": "Point", "coordinates": [ 6.571151, 48.841122 ] } },
{ "type": "Feature", "properties": { "id": 318 }, "geometry": { "type": "Point", "coordinates": [ 6.426307, 48.720956 ] } },
{ "type": "Feature", "properties": { "id": 319 }, "geometry": { "type": "Point", "coordinates": [ 7.120626, 49.23587 ] } },
{ "type": "Feature", "properties": { "id": 320 }, "geometry": { "type": "Point", "coordinates": [ 6.219077, 48.825925 ] } },
{ "type": "Feature", "properties": { "id": 321 }, "geometry": { "type": "Point", "coordinates": [ 6.441149, 49.045769 ] } },
{ "type": "Feature", "properties": { "id": 322 }, "geometry": { "type": "Point", "coordinates": [ 6.972427, 49.082787 ] } },
{ "type": "Feature", "properties": { "id": 323 }, "geometry": { "type": "Point", "coordinates": [ 6.694927, 48.558655 ] } },
{ "type": "Feature", "properties": { "id": 324 }, "geometry": { "type": "Point", "coordinates": [ 6.70378, 48.963636 ] } },
{ "type": "Feature", "properties": { "id": 325 }, "geometry": { "type": "Point", "coordinates": [ 6.251862, 48.851665 ] } },
{ "type": "Feature", "properties": { "id": 326 }, "geometry": { "type": "Point", "coordinates": [ 6.36019, 48.835732 ] } },
{ "type": "Feature", "properties": { "id": 327 }, "geometry": { "type": "Point", "coordinates": [ 7.224258, 48.806829 ] } },
{ "type": "Feature", "properties": { "id": 328 }, "geometry": { "type": "Point", "coordinates": [ 5.982509, 48.72892 ] } },
{ "type": "Feature", "properties": { "id": 329 }, "geometry": { "type": "Point", "coordinates": [ 6.422557, 49.361883 ] } },
{ "type": "Feature", "properties": { "id": 330 }, "geometry": { "type": "Point", "coordinates": [ 6.82519, 48.581527 ] } },
{ "type": "Feature", "properties": { "id": 331 }, "geometry": { "type": "Point", "coordinates": [ 6.027736, 49.304043 ] } },
{ "type": "Feature", "properties": { "id": 332 }, "geometry": { "type": "Point", "coordinates": [ 7.275089, 48.575601 ] } },
{ "type": "Feature", "properties": { "id": 333 }, "geometry": { "type": "Point", "coordinates": [ 5.872799, 48.867429 ] } },
{ "type": "Feature", "properties": { "id": 334 }, "geometry": { "type": "Point", "coordinates": [ 6.772097, 49.165132 ] } },
{ "type": "Feature", "properties": { "id": 335 }, "geometry": { "type": "Point", "coordinates": [ 6.022252, 48.820684 ] } },
{ "type": "Feature", "properties": { "id": 336 }, "geometry": { "type": "Point", "coordinates": [ 5.803325, 48.615425 ] } },
{ "type": "Feature", "properties": { "id": 337 }, "geometry": { "type": "Point", "coordinates": [ 6.588189, 48.647957 ] } },
{ "type": "Feature", "properties": { "id": 338 }, "geometry": { "type": "Point", "coordinates": [ 7.263995, 49.31738 ] } },
{ "type": "Feature", "properties": { "id": 339 }, "geometry": { "type": "Point", "coordinates": [ 6.127133, 48.697232 ] } },
{ "type": "Feature", "properties": { "id": 340 }, "geometry": { "type": "Point", "coordinates": [ 6.141118, 49.023285 ] } },
{ "type": "Feature", "properties": { "id": 341 }, "geometry": { "type": "Point", "coordinates": [ 5.898759, 48.791843 ] } },
{ "type": "Feature", "properties": { "id": 342 }, "geometry": { "type": "Point", "coordinates": [ 6.020668, 49.248888 ] } },
{ "type": "Feature", "properties": { "id": 343 }, "geometry": { "type": "Point", "coordinates": [ 6.263257, 48.837229 ] } },
{ "type": "Feature", "properties": { "id": 344 }, "geometry": { "type": "Point", "coordinates": [ 7.145161, 49.075015 ] } },
{ "type": "Feature", "properties": { "id": 345 }, "geometry": { "type": "Point", "coordinates": [ 5.760655, 49.352496 ] } },
{ "type": "Feature", "properties": { "id": 346 }, "geometry": { "type": "Point", "coordinates": [ 5.905921, 48.549189 ] } },
{ "type": "Feature", "properties": { "id": 347 }, "geometry": { "type": "Point", "coordinates": [ 6.757389, 48.606385 ] } },
{ "type": "Feature", "properties": { "id": 348 }, "geometry": { "type": "Point", "coordinates": [ 6.904516, 48.578692 ] } },
{ "type": "Feature", "properties": { "id": 349 }, "geometry": { "type": "Point", "coordinates": [ 7.213651, 48.682477 ] } },
{ "type": "Feature", "properties": { "id": 350 }, "geometry": { "type": "Point", "coordinates": [ 6.09963, 48.58375 ] } },
{ "type": "Feature", "properties": { "id": 351 }, "geometry": { "type": "Point", "coordinates": [ 6.670372, 49.041476 ] } },
{ "type": "Feature", "properties": { "id": 352 }, "geometry": { "type": "Point", "coordinates": [ 6.502603, 48.92165 ] } },
{ "type": "Feature", "properties": { "id": 353 }, "geometry": { "type": "Point", "coordinates": [ 6.852978, 49.354208 ] } },
{ "type": "Feature", "properties": { "id": 354 }, "geometry": { "type": "Point", "coordinates": [ 6.400516, 49.062977 ] } },
{ "type": "Feature", "properties": { "id": 355 }, "geometry": { "type": "Point", "coordinates": [ 6.115563, 48.760189 ] } },
{ "type": "Feature", "properties": { "id": 356 }, "geometry": { "type": "Point", "coordinates": [ 6.635992, 49.319917 ] } },
{ "type": "Feature", "properties": { "id": 357 }, "geometry": { "type": "Point", "coordinates": [ 6.549903, 48.531096 ] } },
{ "type": "Feature", "properties": { "id": 358 }, "geometry": { "type": "Point", "coordinates": [ 6.622392, 49.312075 ] } },
{ "type": "Feature", "properties": { "id": 359 }, "geometry": { "type": "Point", "coordinates": [ 5.794948, 48.987295 ] } },
{ "type": "Feature", "properties": { "id": 360 }, "geometry": { "type": "Point", "coordinates": [ 6.960069, 48.837292 ] } },
{ "type": "Feature", "properties": { "id": 361 }, "geometry": { "type": "Point", "coordinates": [ 7.158043, 48.906669 ] } },
{ "type": "Feature", "properties": { "id": 362 }, "geometry": { "type": "Point", "coordinates": [ 6.408227, 49.262795 ] } },
{ "type": "Feature", "properties": { "id": 363 }, "geometry": { "type": "Point", "coordinates": [ 6.405185, 48.911418 ] } },
{ "type": "Feature", "properties": { "id": 364 }, "geometry": { "type": "Point", "coordinates": [ 6.406779, 49.274915 ] } },
{ "type": "Feature", "properties": { "id": 365 }, "geometry": { "type": "Point", "coordinates": [ 7.233535, 48.67887 ] } },
{ "type": "Feature", "properties": { "id": 366 }, "geometry": { "type": "Point", "coordinates": [ 5.760915, 48.512281 ] } },
{ "type": "Feature", "properties": { "id": 367 }, "geometry": { "type": "Point", "coordinates": [ 5.935766, 48.73522 ] } },
{ "type": "Feature", "properties": { "id": 368 }, "geometry": { "type": "Point", "coordinates": [ 5.831998, 48.604501 ] } },
{ "type": "Feature", "properties": { "id": 369 }, "geometry": { "type": "Point", "coordinates": [ 5.838641, 49.006012 ] } },
{ "type": "Feature", "properties": { "id": 370 }, "geometry": { "type": "Point", "coordinates": [ 5.876978, 49.228138 ] } },
{ "type": "Feature", "properties": { "id": 371 }, "geometry": { "type": "Point", "coordinates": [ 6.833593, 49.314411 ] } },
{ "type": "Feature", "properties": { "id": 372 }, "geometry": { "type": "Point", "coordinates": [ 6.939916, 49.350324 ] } },
{ "type": "Feature", "properties": { "id": 373 }, "geometry": { "type": "Point", "coordinates": [ 7.149325, 49.168506 ] } },
{ "type": "Feature", "properties": { "id": 374 }, "geometry": { "type": "Point", "coordinates": [ 7.201822, 48.518423 ] } },
{ "type": "Feature", "properties": { "id": 375 }, "geometry": { "type": "Point", "coordinates": [ 6.507998, 49.321972 ] } },
{ "type": "Feature", "properties": { "id": 376 }, "geometry": { "type": "Point", "coordinates": [ 6.685294, 48.941258 ] } },
{ "type": "Feature", "properties": { "id": 377 }, "geometry": { "type": "Point", "coordinates": [ 6.938344, 49.38857 ] } },
{ "type": "Feature", "properties": { "id": 378 }, "geometry": { "type": "Point", "coordinates": [ 5.833794, 48.564465 ] } },
{ "type": "Feature", "properties": { "id": 379 }, "geometry": { "type": "Point", "coordinates": [ 6.705795, 48.952636 ] } },
{ "type": "Feature", "properties": { "id": 380 }, "geometry": { "type": "Point", "coordinates": [ 7.296925, 48.699198 ] } },
{ "type": "Feature", "properties": { "id": 381 }, "geometry": { "type": "Point", "coordinates": [ 6.645823, 49.271344 ] } },
{ "type": "Feature", "properties": { "id": 382 }, "geometry": { "type": "Point", "coordinates": [ 6.654116, 48.995878 ] } },
{ "type": "Feature", "properties": { "id": 383 }, "geometry": { "type": "Point", "coordinates": [ 6.828409, 48.589445 ] } },
{ "type": "Feature", "properties": { "id": 384 }, "geometry": { "type": "Point", "coordinates": [ 6.504646, 48.730248 ] } },
{ "type": "Feature", "properties": { "id": 385 }, "geometry": { "type": "Point", "coordinates": [ 6.503233, 49.269362 ] } },
{ "type": "Feature", "properties": { "id": 386 }, "geometry": { "type": "Point", "coordinates": [ 5.977859, 48.950219 ] } },
{ "type": "Feature", "properties": { "id": 387 }, "geometry": { "type": "Point", "coordinates": [ 6.676922, 48.737354 ] } },
{ "type": "Feature", "properties": { "id": 388 }, "geometry": { "type": "Point", "coordinates": [ 7.285458, 48.896494 ] } },
{ "type": "Feature", "properties": { "id": 389 }, "geometry": { "type": "Point", "coordinates": [ 6.514216, 48.943538 ] } },
{ "type": "Feature", "properties": { "id": 390 }, "geometry": { "type": "Point", "coordinates": [ 7.03592, 49.05232 ] } },
{ "type": "Feature", "properties": { "id": 391 }, "geometry": { "type": "Point", "coordinates": [ 6.714915, 48.854677 ] } },
{ "type": "Feature", "properties": { "id": 392 }, "geometry": { "type": "Point", "coordinates": [ 6.678481, 49.013043 ] } },
{ "type": "Feature", "properties": { "id": 393 }, "geometry": { "type": "Point", "coordinates": [ 5.830783, 48.93894 ] } },
{ "type": "Feature", "properties": { "id": 394 }, "geometry": { "type": "Point", "coordinates": [ 6.719091, 48.629871 ] } },
{ "type": "Feature", "properties": { "id": 395 }, "geometry": { "type": "Point", "coordinates": [ 6.602541, 48.516122 ] } },
{ "type": "Feature", "properties": { "id": 396 }, "geometry": { "type": "Point", "coordinates": [ 6.267284, 48.516704 ] } },
{ "type": "Feature", "properties": { "id": 397 }, "geometry": { "type": "Point", "coordinates": [ 6.772101, 48.877243 ] } },
{ "type": "Feature", "properties": { "id": 398 }, "geometry": { "type": "Point", "coordinates": [ 6.767592, 49.16339 ] } },
{ "type": "Feature", "properties": { "id": 399 }, "geometry": { "type": "Point", "coordinates": [ 7.301707, 48.759476 ] } },
{ "type": "Feature", "properties": { "id": 400 }, "geometry": { "type": "Point", "coordinates": [ 6.36397, 49.317655 ] } },
{ "type": "Feature", "properties": { "id": 401 }, "geometry": { "type": "Point", "coordinates": [ 7.225414, 48.834839 ] } },
{ "type": "Feature", "properties": { "id": 402 }, "geometry": { "type": "Point", "coordinates": [ 7.012255, 49.036604 ] } },
{ "type": "Feature", "properties": { "id": 403 }, "geometry": { "type": "Point", "coordinates": [ 6.145345, 49.102142 ] } },
{ "type": "Feature", "properties": { "id": 404 }, "geometry": { "type": "Point", "coordinates": [ 7.212293, 49.297306 ] } },
{ "type": "Feature", "properties": { "id": 405 }, "geometry": { "type": "Point", "coordinates": [ 6.570936, 48.995907 ] } },
{ "type": "Feature", "properties": { "id": 406 }, "geometry": { "type": "Point", "coordinates": [ 6.123296, 49.122009 ] } },
{ "type": "Feature", "properties": { "id": 407 }, "geometry": { "type": "Point", "coordinates": [ 6.175783, 49.206046 ] } },
{ "type": "Feature", "properties": { "id": 408 }, "geometry": { "type": "Point", "coordinates": [ 7.160997, 49.243559 ] } },
{ "type": "Feature", "properties": { "id": 409 }, "geometry": { "type": "Point", "coordinates": [ 6.17847, 48.752194 ] } },
{ "type": "Feature", "properties": { "id": 410 }, "geometry": { "type": "Point", "coordinates": [ 6.183839, 48.748021 ] } },
{ "type": "Feature", "properties": { "id": 411 }, "geometry": { "type": "Point", "coordinates": [ 6.282542, 48.815054 ] } },
{ "type": "Feature", "properties": { "id": 412 }, "geometry": { "type": "Point", "coordinates": [ 5.999054, 49.204287 ] } },
{ "type": "Feature", "properties": { "id": 413 }, "geometry": { "type": "Point", "coordinates": [ 6.408381, 48.858901 ] } },
{ "type": "Feature", "properties": { "id": 414 }, "geometry": { "type": "Point", "coordinates": [ 6.320917, 49.002239 ] } },
{ "type": "Feature", "properties": { "id": 415 }, "geometry": { "type": "Point", "coordinates": [ 6.414419, 49.150821 ] } },
{ "type": "Feature", "properties": { "id": 416 }, "geometry": { "type": "Point", "coordinates": [ 5.91909, 49.043049 ] } },
{ "type": "Feature", "properties": { "id": 417 }, "geometry": { "type": "Point", "coordinates": [ 5.988443, 49.251524 ] } },
{ "type": "Feature", "properties": { "id": 418 }, "geometry": { "type": "Point", "coordinates": [ 7.069007, 48.720327 ] } },
{ "type": "Feature", "properties": { "id": 419 }, "geometry": { "type": "Point", "coordinates": [ 5.775918, 49.013728 ] } },
{ "type": "Feature", "properties": { "id": 420 }, "geometry": { "type": "Point", "coordinates": [ 6.689871, 48.973752 ] } },
{ "type": "Feature", "properties": { "id": 421 }, "geometry": { "type": "Point", "coordinates": [ 7.151668, 49.055491 ] } },
{ "type": "Feature", "properties": { "id": 422 }, "geometry": { "type": "Point", "coordinates": [ 6.226948, 48.941167 ] } },
{ "type": "Feature", "properties": { "id": 423 }, "geometry": { "type": "Point", "coordinates": [ 6.759101, 48.583077 ] } },
{ "type": "Feature", "properties": { "id": 424 }, "geometry": { "type": "Point", "coordinates": [ 6.20703, 48.864317 ] } },
{ "type": "Feature", "properties": { "id": 425 }, "geometry": { "type": "Point", "coordinates": [ 7.149537, 48.52557 ] } },
{ "type": "Feature", "properties": { "id": 426 }, "geometry": { "type": "Point", "coordinates": [ 5.950942, 49.186324 ] } },
{ "type": "Feature", "properties": { "id": 427 }, "geometry": { "type": "Point", "coordinates": [ 7.291246, 48.829537 ] } },
{ "type": "Feature", "properties": { "id": 428 }, "geometry": { "type": "Point", "coordinates": [ 6.629978, 48.675985 ] } },
{ "type": "Feature", "properties": { "id": 429 }, "geometry": { "type": "Point", "coordinates": [ 6.169722, 49.066623 ] } },
{ "type": "Feature", "properties": { "id": 430 }, "geometry": { "type": "Point", "coordinates": [ 6.614063, 49.178317 ] } },
{ "type": "Feature", "properties": { "id": 431 }, "geometry": { "type": "Point", "coordinates": [ 6.706475, 48.810991 ] } },
{ "type": "Feature", "properties": { "id": 432 }, "geometry": { "type": "Point", "coordinates": [ 7.171465, 48.527028 ] } },
{ "type": "Feature", "properties": { "id": 433 }, "geometry": { "type": "Point", "coordinates": [ 6.550956, 48.634623 ] } },
{ "type": "Feature", "properties": { "id": 434 }, "geometry": { "type": "Point", "coordinates": [ 5.846937, 49.153608 ] } },
{ "type": "Feature", "properties": { "id": 435 }, "geometry": { "type": "Point", "coordinates": [ 6.421659, 49.112726 ] } },
{ "type": "Feature", "properties": { "id": 436 }, "geometry": { "type": "Point", "coordinates": [ 5.853853, 48.703382 ] } },
{ "type": "Feature", "properties": { "id": 437 }, "geometry": { "type": "Point", "coordinates": [ 6.830853, 49.023412 ] } },
{ "type": "Feature", "properties": { "id": 438 }, "geometry": { "type": "Point", "coordinates": [ 5.780455, 49.367986 ] } },
{ "type": "Feature", "properties": { "id": 439 }, "geometry": { "type": "Point", "coordinates": [ 7.236518, 48.714251 ] } },
{ "type": "Feature", "properties": { "id": 440 }, "geometry": { "type": "Point", "coordinates": [ 6.205611, 49.16116 ] } },
{ "type": "Feature", "properties": { "id": 441 }, "geometry": { "type": "Point", "coordinates": [ 6.654674, 48.628871 ] } },
{ "type": "Feature", "properties": { "id": 442 }, "geometry": { "type": "Point", "coordinates": [ 7.077734, 49.098647 ] } },
{ "type": "Feature", "properties": { "id": 443 }, "geometry": { "type": "Point", "coordinates": [ 6.851798, 49.001376 ] } },
{ "type": "Feature", "properties": { "id": 444 }, "geometry": { "type": "Point", "coordinates": [ 6.646338, 49.231063 ] } },
{ "type": "Feature", "properties": { "id": 445 }, "geometry": { "type": "Point", "coordinates": [ 6.810608, 49.12408 ] } },
{ "type": "Feature", "properties": { "id": 446 }, "geometry": { "type": "Point", "coordinates": [ 6.499946, 48.802439 ] } },
{ "type": "Feature", "properties": { "id": 447 }, "geometry": { "type": "Point", "coordinates": [ 6.297157, 48.651317 ] } },
{ "type": "Feature", "properties": { "id": 448 }, "geometry": { "type": "Point", "coordinates": [ 6.707921, 49.199964 ] } },
{ "type": "Feature", "properties": { "id": 449 }, "geometry": { "type": "Point", "coordinates": [ 6.729821, 48.958375 ] } },
{ "type": "Feature", "properties": { "id": 450 }, "geometry": { "type": "Point", "coordinates": [ 6.088135, 49.026777 ] } },
{ "type": "Feature", "properties": { "id": 451 }, "geometry": { "type": "Point", "coordinates": [ 6.055995, 48.587053 ] } },
{ "type": "Feature", "properties": { "id": 452 }, "geometry": { "type": "Point", "coordinates": [ 7.091098, 49.037455 ] } },
{ "type": "Feature", "properties": { "id": 453 }, "geometry": { "type": "Point", "coordinates": [ 6.176592, 49.305517 ] } },
{ "type": "Feature", "properties": { "id": 454 }, "geometry": { "type": "Point", "coordinates": [ 6.556939, 48.816408 ] } },
{ "type": "Feature", "properties": { "id": 455 }, "geometry": { "type": "Point", "coordinates": [ 6.942669, 48.602034 ] } },
{ "type": "Feature", "properties": { "id": 456 }, "geometry": { "type": "Point", "coordinates": [ 6.02419, 49.324017 ] } },
{ "type": "Feature", "properties": { "id": 457 }, "geometry": { "type": "Point", "coordinates": [ 6.424966, 49.386126 ] } },
{ "type": "Feature", "properties": { "id": 458 }, "geometry": { "type": "Point", "coordinates": [ 7.022657, 48.549031 ] } },
{ "type": "Feature", "properties": { "id": 459 }, "geometry": { "type": "Point", "coordinates": [ 5.955241, 49.085203 ] } },
{ "type": "Feature", "properties": { "id": 460 }, "geometry": { "type": "Point", "coordinates": [ 6.427254, 48.556108 ] } },
{ "type": "Feature", "properties": { "id": 461 }, "geometry": { "type": "Point", "coordinates": [ 6.599964, 49.311809 ] } },
{ "type": "Feature", "properties": { "id": 462 }, "geometry": { "type": "Point", "coordinates": [ 7.055879, 48.618394 ] } },
{ "type": "Feature", "properties": { "id": 463 }, "geometry": { "type": "Point", "coordinates": [ 5.909743, 48.781074 ] } },
{ "type": "Feature", "properties": { "id": 464 }, "geometry": { "type": "Point", "coordinates": [ 6.139804, 49.008525 ] } },
{ "type": "Feature", "properties": { "id": 465 }, "geometry": { "type": "Point", "coordinates": [ 6.443152, 48.922951 ] } },
{ "type": "Feature", "properties": { "id": 466 }, "geometry": { "type": "Point", "coordinates": [ 5.85784, 48.838343 ] } },
{ "type": "Feature", "properties": { "id": 467 }, "geometry": { "type": "Point", "coordinates": [ 7.34232, 49.286226 ] } },
{ "type": "Feature", "properties": { "id": 468 }, "geometry": { "type": "Point", "coordinates": [ 6.785176, 48.833054 ] } },
{ "type": "Feature", "properties": { "id": 469 }, "geometry": { "type": "Point", "coordinates": [ 5.840877, 49.111265 ] } },
{ "type": "Feature", "properties": { "id": 470 }, "geometry": { "type": "Point", "coordinates": [ 6.979526, 49.010664 ] } },
{ "type": "Feature", "properties": { "id": 471 }, "geometry": { "type": "Point", "coordinates": [ 7.248278, 49.368429 ] } },
{ "type": "Feature", "properties": { "id": 472 }, "geometry": { "type": "Point", "coordinates": [ 6.436844, 48.555198 ] } },
{ "type": "Feature", "properties": { "id": 473 }, "geometry": { "type": "Point", "coordinates": [ 7.10745, 48.636823 ] } },
{ "type": "Feature", "properties": { "id": 474 }, "geometry": { "type": "Point", "coordinates": [ 6.410435, 49.146378 ] } },
{ "type": "Feature", "properties": { "id": 475 }, "geometry": { "type": "Point", "coordinates": [ 6.013468, 49.116426 ] } },
{ "type": "Feature", "properties": { "id": 476 }, "geometry": { "type": "Point", "coordinates": [ 6.331272, 48.588828 ] } },
{ "type": "Feature", "properties": { "id": 477 }, "geometry": { "type": "Point", "coordinates": [ 5.859046, 49.147428 ] } },
{ "type": "Feature", "properties": { "id": 478 }, "geometry": { "type": "Point", "coordinates": [ 6.351734, 49.204349 ] } },
{ "type": "Feature", "properties": { "id": 479 }, "geometry": { "type": "Point", "coordinates": [ 6.778211, 49.235111 ] } },
{ "type": "Feature", "properties": { "id": 480 }, "geometry": { "type": "Point", "coordinates": [ 6.816669, 48.870783 ] } },
{ "type": "Feature", "properties": { "id": 481 }, "geometry": { "type": "Point", "coordinates": [ 6.640971, 49.292507 ] } },
{ "type": "Feature", "properties": { "id": 482 }, "geometry": { "type": "Point", "coordinates": [ 6.671374, 49.308043 ] } },
{ "type": "Feature", "properties": { "id": 483 }, "geometry": { "type": "Point", "coordinates": [ 7.161577, 49.288451 ] } },
{ "type": "Feature", "properties": { "id": 484 }, "geometry": { "type": "Point", "coordinates": [ 6.683096, 49.115971 ] } },
{ "type": "Feature", "properties": { "id": 485 }, "geometry": { "type": "Point", "coordinates": [ 6.810022, 49.31595 ] } },
{ "type": "Feature", "properties": { "id": 486 }, "geometry": { "type": "Point", "coordinates": [ 6.25308, 49.333368 ] } },
{ "type": "Feature", "properties": { "id": 487 }, "geometry": { "type": "Point", "coordinates": [ 7.277221, 49.265516 ] } },
{ "type": "Feature", "properties": { "id": 488 }, "geometry": { "type": "Point", "coordinates": [ 5.985814, 48.83638 ] } },
{ "type": "Feature", "properties": { "id": 489 }, "geometry": { "type": "Point", "coordinates": [ 7.119305, 48.894764 ] } },
{ "type": "Feature", "properties": { "id": 490 }, "geometry": { "type": "Point", "coordinates": [ 6.385324, 48.996955 ] } },
{ "type": "Feature", "properties": { "id": 491 }, "geometry": { "type": "Point", "coordinates": [ 6.087336, 49.159918 ] } },
{ "type": "Feature", "properties": { "id": 492 }, "geometry": { "type": "Point", "coordinates": [ 6.219713, 48.954884 ] } },
{ "type": "Feature", "properties": { "id": 493 }, "geometry": { "type": "Point", "coordinates": [ 6.164816, 49.382369 ] } },
{ "type": "Feature", "properties": { "id": 494 }, "geometry": { "type": "Point", "coordinates": [ 7.080113, 48.603999 ] } },
{ "type": "Feature", "properties": { "id": 495 }, "geometry": { "type": "Point", "coordinates": [ 6.929921, 48.844578 ] } },
{ "type": "Feature", "properties": { "id": 496 }, "geometry": { "type": "Point", "coordinates": [ 6.724245, 48.642238 ] } },
{ "type": "Feature", "properties": { "id": 497 }, "geometry": { "type": "Point", "coordinates": [ 5.995996, 48.793262 ] } },
{ "type": "Feature", "properties": { "id": 498 }, "geometry": { "type": "Point", "coordinates": [ 6.689428, 49.086202 ] } },
{ "type": "Feature", "properties": { "id": 499 }, "geometry": { "type": "Point", "coordinates": [ 7.201878, 48.550971 ] } }
]
}
