{
"type": "FeatureCollection",
"name": "points_shifted_100",
"crs": { "type": "name", "properties": { "name": "urn:ogc:def:crs:OGC:1.3:CRS84" } },
"features": [
{ "type": "Feature", "properties": { "id": 0 }, "geometry": { "type": "Point", "coordinates": [ 6.800526, 49.356162 ] } },
{ "type": "Feature", "properties": { "id": 1 }, "geometry": { "type": "Point", "coordinates": [ 5.755409, 49.176507 ] } },
{ "type": "Feature", "properties": { "id": 2 }, "geometry": { "type": "Point", "coordinates": [ 5.790768, 49.15244 ] } },
{ "type": "Feature", "properties": { "id": 3 }, "geometry": { "type": "Point", "coordinates": [ 6.156895, 48.575817 ] } },
{ "type": "Feature", "properties": { "id": 4 }, "geometry": { "type": "Point", "coordinates": [ 7.060564, 49.299509 ] } },
{ "type": "Feature", "properties": { "id": 5 }, "geometry": { "type": "Point", "coordinates": [ 6.328127, 48.900406 ] } },
{ "type": "Feature", "properties": { "id": 6 }, "geometry": { "type": "Point", "coordinates": [ 6.13629, 49.064133 ] } },
{ "type": "Feature", "properties": { "id": 7 }, "geometry": { "type": "Point", "coordinates": [ 5.798781, 49.198745 ] } },
{ "type": "Feature", "properties": { "id": 8 }, "geometry": { "type": "Point", "coordinates": [ 6.95537, 48.923118 ] } },
{ "type": "Feature", "properties": { "id": 9 }, "geometry": { "type": "Point", "coordinates": [ 6.315057, 48.618638 ] } },
{ "type": "Feature", "properties": { "id": 10 }, "geometry": { "type": "Point", "coordinates": [ 5.842061, 48.822805 ] } },
{ "type": "Feature", "properties": { "id": 11 }, "geometry": { "type": "Point", "coordinates": [ 6.654959, 49.150889 ] } },
{ "type": "Feature", "properties": { "id": 12 }, "geometry": { "type": "Point", "coordinates": [ 5.931866, 48.6666 ] } },
{ "type": "Feature", "properties": { "id": 13 }, "geometry": { "type": "Point", "coordinates": [ 6.871681, 48.801072 ] } },
{ "type": "Feature", "properties": { "id": 14 }, "geometry": { "type": "Point", "coordinates": [ 6.953171, 48.891482 ] } },
{ "type": "Feature", "properties": { "id": 15 }, "geometry": { "type": "Point", "coordinates": [ 5.987229, 48.990345 ] } },
{ "type": "Feature", "properties": { "id": 16 }, "geometry": { "type": "Point", "coordinates": [ 6.964557, 48.673426 ] } },
{ "type": "Feature", "properties": { "id": 17 }, "geometry": { "type": "Point", "coordinates": [ 7.266772, 48.913887 ] } },
{ "type": "Feature", "properties": { "id": 18 }, "geometry": { "type": "Point", "coordinates": [ 7.071364, 49.10199 ] } },
{ "type": "Feature", "properties": { "id": 19 }, "geometry": { "type": "Point", "coordinates": [ 7.244104, 48.949231 ] } },
{ "type": "Feature", "properties": { "id": 20 }, "geometry": { "type": "Point", "coordinates": [ 6.005417, 48.908148 ] } },
{ "type": "Feature", "properties": { "id": 21 }, "geometry": { "type": "Point", "coordinates": [ 6.376005, 49.061964 ] } },
{ "type": "Feature", "properties": { "id": 22 }, "geometry": { "type": "Point", "coordinates": [ 6.965891, 49.095557 ] } },
{ "type": "Feature", "properties": { "id": 23 }, "geometry": { "type": "Point", "coordinates": [ 7.078305, 49.307084 ] } },
{ "type": "Feature", "properties": { "id": 24 }, "geometry": { "type": "Point", "coordinates": [ 5.761297, 49.358809 ] } },
{ "type": "Feature", "properties": { "id": 25 }, "geometry": { "type": "Point", "coordinates": [ 6.30033, 48.762943 ] } },
{ "type": "Feature", "properties": { "id": 26 }, "geometry": { "type": "Point", "coordinates": [ 6.527, 49.022331 ] } },
{ "type": "Feature", "properties": { "id": 27 }, "geometry": { "type": "Point", "coordinates": [ 6.397305, 48.854438 ] } },
{ "type": "Feature", "properties": { "id": 28 }, "geometry": { "type": "Point", "coordinates": [ 6.893377, 48.888916 ] } },
{ "type": "Feature", "properties": { "id": 29 }, "geometry": { "type": "Point", "coordinates": [ 7.045201, 48.779651 ] } },
{ "type": "Feature", "properties": { "id": 30 }, "geometry": { "type": "Point", "coordinates": [ 6.196364, 48.893386 ] } },
{ "type": "Feature", "properties": { "id": 31 }, "geometry": { "type": "Point", "coordinates": [ 7.047931, 49.298851 ] } },
{ "type": "Feature", "properties": { "id": 32 }, "geometry": { "type": "Point", "coordinates": [ 6.73195, 48.980253 ] } },
{ "type": "Feature", "properties": { "id": 33 }, "geometry": { "type": "Point", "coordinates": [ 6.35536, 49.121587 ] } },
{ "type": "Feature", "properties": { "id": 34 }, "geometry": { "type": "Point", "coordinates": [ 6.63587, 48.745727 ] } },
{ "type": "Feature", "properties": { "id": 35 }, "geometry": { "type": "Point", "coordinates": [ 7.111871, 48.571125 ] } },
{ "type": "Feature", "properties": { "id": 36 }, "geometry": { "type": "Point", "coordinates": [ 6.106266, 48.74546 ] } },
{ "type": "Feature", "properties": { "id": 37 }, "geometry": { "type": "Point", "coordinates": [ 6.567957, 48.763834 ] } },
{ "type": "Feature", "properties": { "id": 38 }, "geometry": { "type": "Point", "coordinates": [ 6.275751, 49.001945 ] } },
{ "type": "Feature", "properties": { "id": 39 }, "geometry": { "type": "Point", "coordinates": [ 7.274118, 49.140423 ] } },
{ "type": "Feature", "properties": { "id": 40 }, "geometry": { "type": "Point", "coordinates": [ 6.993964, 49.124899 ] } },
{ "type": "Feature", "properties": { "id": 41 }, "geometry": { "type": "Point", "coordinates": [ 6.507729, 48.6073 ] } },
{ "type": "Feature", "properties": { "id": 42 }, "geometry": { "type": "Point", "coordinates": [ 6.002824, 48.664353 ] } },
{ "type": "Feature", "properties": { "id": 43 }, "geometry": { "type": "Point", "coordinates": [ 7.249597, 48.848899 ] } },
{ "type": "Feature", "properties": { "id": 44 }, "geometry": { "type": "Point", "coordinates": [ 6.104338, 48.578711 ] } },
{ "type": "Feature", "properties": { "id": 45 }, "geometry": { "type": "Point", "coordinates": [ 6.855871, 49.352654 ] } },
{ "type": "Feature", "properties": { "id": 46 }, "geometry": { "type": "Point", "coordinates": [ 6.910707, 48.591411 ] } },
{ "type": "Feature", "properties": { "id": 47 }, "geometry": { "type": "Point", "coordinates": [ 5.78413, 49.055166 ] } },
{ "type": "Feature", "properties": { "id": 48 }, "geometry": { "type": "Point", "coordinates": [ 6.224568, 48.920266 ] } },
{ "type": "Feature", "properties": { "id": 49 }, "geometry": { "type": "Point", "coordinates": [ 7.108468, 49.203229 ] } },
{ "type": "Feature", "properties": { "id": 50 }, "geometry": { "type": "Point", "coordinates": [ 6.182569, 48.52458 ] } },
{ "type": "Feature", "properties": { "id": 51 }, "geometry": { "type": "Point", "coordinates": [ 5.972022, 49.36154 ] } },
{ "type": "Feature", "properties": { "id": 52 }, "geometry": { "type": "Point", "coordinates": [ 6.863583, 49.111422 ] } },
{ "type": "Feature", "properties": { "id": 53 }, "geometry": { "type": "Point", "coordinates": [ 6.238459, 48.839859 ] } },
{ "type": "Feature", "properties": { "id": 54 }, "geometry": { "type": "Point", "coordinates": [ 5.7963, 48.849768 ] } },
{ "type": "Feature", "properties": { "id": 55 }, "geometry": { "type": "Point", "coordinates": [ 5.783317, 49.170692 ] } },
{ "type": "Feature", "properties": { "id": 56 }, "geometry": { "type": "Point", "coordinates": [ 6.36441, 49.163433 ] } },
{ "type": "Feature", "properties": { "id": 57 }, "geometry": { "type": "Point", "coordinates": [ 5.864292, 48.618755 ] } },
{ "type": "Feature", "properties": { "id": 58 }, "geometry": { "type": "Point", "coordinates": [ 6.111766, 48.935643 ] } },
{ "type": "Feature", "properties": { "id": 59 }, "geometry": { "type": "Point", "coordinates": [ 7.037626, 49.38239 ] } },
{ "type": "Feature", "properties": { "id": 60 }, "geometry": { "type": "Point", "coordinates": [ 5.796107, 48.666827 ] } },
{ "type": "Feature", "properties": { "id": 61 }, "geometry": { "type": "Point", "coordinates": [ 6.729089, 49.195405 ] } },
{ "type": "Feature", "properties": { "id": 62 }, "geometry": { "type": "Point", "coordinates": [ 6.003811, 49.376667 ] } },
{ "type": "Feature", "properties": { "id": 63 }, "geometry": { "type": "Point", "coordinates": [ 6.705653, 49.2527 ] } },
{ "type": "Feature", "properties": { "id": 64 }, "geometry": { "type": "Point", "coordinates": [ 7.222481, 49.003209 ] } },
{ "type": "Feature", "properties": { "id": 65 }, "geometry": { "type": "Point", "coordinates": [ 6.802188, 48.558557 ] } },
{ "type": "Feature", "properties": { "id": 66 }, "geometry": { "type": "Point", "coordinates": [ 6.117448, 48.94428 ] } },
{ "type": "Feature", "properties": { "id": 67 }, "geometry": { "type": "Point", "coordinates": [ 6.347199, 48.72343 ] } },
{ "type": "Feature", "properties": { "id": 68 }, "geometry": { "type": "Point", "coordinates": [ 6.589512, 48.845656 ] } },
{ "type": "Feature", "properties": { "id": 69 }, "geometry": { "type": "Point", "coordinates": [ 6.945877, 49.164458 ] } },
{ "type": "Feature", "properties": { "id": 70 }, "geometry": { "type": "Point", "coordinates": [ 5.786425, 48.729314 ] } },
{ "type": "Feature", "properties": { "id": 71 }, "geometry": { "type": "Point", "coordinates": [ 7.15038, 48.798464 ] } },
{ "type": "Feature", "properties": { "id": 72 }, "geometry": { "type": "Point", "coordinates": [ 7.223828, 48.871235 ] } },
{ "type": "Feature", "properties": { "id": 73 }, "geometry": { "type": "Point", "coordinates": [ 6.870972, 49.316884 ] } },
{ "type": "Feature", "properties": { "id": 74 }, "geometry": { "type": "Point", "coordinates": [ 7.169166, 48.558673 ] } },
{ "type": "Feature", "properties": { "id": 75 }, "geometry": { "type": "Point", "coordinates": [ 6.444261, 48.57329 ] } },
{ "type": "Feature", "properties": { "id": 76 }, "geometry": { "type": "Point", "coordinates": [ 6.645567, 48.962228 ] } },
{ "type": "Feature", "properties": { "id": 77 }, "geometry": { "type": "Point", "coordinates": [ 6.573883, 49.19422 ] } },
{ "type": "Feature", "properties": { "id": 78 }, "geometry": { "type": "Point", "coordinates": [ 5.912173, 48.585674 ] } },
{ "type": "Feature", "properties": { "id": 79 }, "geometry": { "type": "Point", "coordinates": [ 6.307185, 48.682899 ] } },
{ "type": "Feature", "properties": { "id": 80 }, "geometry": { "type": "Point", "coordinates": [ 6.464067, 48.965255 ] } },
{ "type": "Feature", "properties": { "id": 81 }, "geometry": { "type": "Point", "coordinates": [ 6.373278, 49.398834 ] } },
{ "type": "Feature", "properties": { "id": 82 }, "geometry": { "type": "Point", "coordinates": [ 6.828763, 48.785672 ] } },
{ "type": "Feature", "properties": { "id": 83 }, "geometry": { "type": "Point", "coordinates": [ 6.892973, 48.618694 ] } },
{ "type": "Feature", "properties": { "id": 84 }, "geometry": { "type": "Point", "coordinates": [ 7.151487, 48.709204 ] } },
{ "type": "Feature", "properties": { "id": 85 }, "geometry": { "type": "Point", "coordinates": [ 6.457032, 48.800882 ] } },
{ "type": "Feature", "properties": { "id": 86 }, "geometry": { "type": "Point", "coordinates": [ 5.865453, 49.15054 ] } },
{ "type": "Feature", "properties": { "id": 87 }, "geometry": { "type": "Point", "coordinates": [ 6.374712, 49.009132 ] } },
{ "type": "Feature", "properties": { "id": 88 }, "geometry": { "type": "Point", "coordinates": [ 6.526915, 48.7229 ] } },
{ "type": "Feature", "properties": { "id": 89 }, "geometry": { "type": "Point", "coordinates": [ 6.284914, 48.568352 ] } },
{ "type": "Feature", "properties": { "id": 90 }, "geometry": { "type": "Point", "coordinates": [ 7.210971, 48.659867 ] } },
{ "type": "Feature", "properties": { "id": 91 }, "geometry": { "type": "Point", "coordinates": [ 6.566746, 48.876257 ] } },
{ "type": "Feature", "properties": { "id": 92 }, "geometry": { "type": "Point", "coordinates": [ 7.220025, 48.777515 ] } },
{ "type": "Feature", "properties": { "id": 93 }, "geometry": { "type": "Point", "coordinates": [ 6.298381, 49.229729 ] } },
{ "type": "Feature", "properties": { "id": 94 }, "geometry": { "type": "Point", "coordinates": [ 5.850927, 49.102277 ] } },
{ "type": "Feature", "properties": { "id": 95 }, "geometry": { "type": "Point", "coordinates": [ 6.900121, 49.378674 ] } },
{ "type": "Feature", "properties": { "id": 96 }, "geometry": { "type": "Point", "coordinates": [ 6.31093, 48.973724 ] } },
{ "type": "Feature", "properties": { "id": 97 }, "geometry": { "type": "Point", "coordinates": [ 5.845196, 48.720123 ] } },
{ "type": "Feature", "properties": { "id": 98 }, "geometry": { "type": "Point", "coordinates": [ 5.970167, 48.559644 ] } },
{ "type": "Feature", "properties": { "id": 99 }, "geometry": { "type": "Point", "coordinates": [ 6.492424, 48.838144 ] } }
]
}
