{
"type": "FeatureCollection",
"name": "polygons_shifted_50",
"crs": { "type": "name", "properties": { "name": "urn:ogc:def:crs:OGC:1.3:CRS84" } },
"features": [
{ "type": "Feature", "properties": { }, "geometry": { "type": "MultiPolygon", "coordinates": [ [ [ [ 6.656929, 50.062139 ], [ 6.657104, 50.062139 ], [ 6.657104, 50.062164 ], [ 6.657779, 50.062164 ], [ 6.657779, 50.062139 ], [ 6.657934, 50.062139 ], [ 6.657934, 50.062154 ], [ 6.659059, 50.062154 ], [ 6.659059, 50.063069 ], [ 6.659484, 50.063069 ], [ 6.659484, 50.062049 ], [ 6.659079, 50.062049 ], [ 6.659079, 50.061789 ], [ 6.657984, 50.061789 ], [ 6.657984, 50.061774 ], [ 6.657944, 50.061774 ], [ 6.657944, 50.061744 ], [ 6.657724, 50.061744 ], [ 6.657724, 50.061774 ], [ 6.657129, 50.061774 ], [ 6.657129, 50.061754 ], [ 6.656929, 50.061754 ], [ 6.656929, 50.062139 ] ] ] ] } },
{ "type": "Feature", "properties": { }, "geometry": { "type": "MultiPolygon", "coordinates": [ [ [ [ 7.290474, 50.112964 ], [ 7.290469, 50.113409 ], [ 7.290709, 50.113409 ], [ 7.290714, 50.112964 ], [ 7.290474, 50.112964 ] ] ] ] } },
{ "type": "Feature", "properties": { }, "geometry": { "type": "MultiPolygon", "coordinates": [ [ [ [ 7.156064, 49.896404 ], [ 7.156074, 49.896074 ], [ 7.155769, 49.896069 ], [ 7.155779, 49.895819 ], [ 7.155059, 49.895804 ], [ 7.155044, 49.896384 ], [ 7.156064, 49.896404 ] ] ] ] } },
{ "type": "Feature", "properties": { }, "geometry": { "type": "MultiPolygon", "coordinates": [ [ [ [ 6.797354, 49.525129 ], [ 6.797354, 49.525234 ], [ 6.797189, 49.525234 ], [ 6.797184, 49.525644 ], [ 6.797764, 49.525644 ], [ 6.797764, 49.525249 ], [ 6.797874, 49.525249 ], [ 6.797879, 49.525129 ], [ 6.797769, 49.525129 ], [ 6.797769, 49.524754 ], [ 6.797839, 49.524754 ], [ 6.797844, 49.524354 ], [ 6.797954, 49.524354 ], [ 6.797954, 49.524244 ], [ 6.797844, 49.524244 ], [ 6.797849, 49.523844 ], [ 6.797259, 49.523839 ], [ 6.797254, 49.524244 ], [ 6.797424, 49.524244 ], [ 6.797424, 49.524354 ], [ 6.797254, 49.524354 ], [ 6.797249, 49.524624 ], [ 6.797199, 49.524624 ], [ 6.797189, 49.525124 ], [ 6.797354, 49.525129 ] ] ] ] } },
{ "type": "Feature", "properties": { }, "geometry": { "type": "MultiPolygon", "coordinates": [ [ [ [ 6.818264, 49.619844 ], [ 6.816694, 49.619834 ], [ 6.816694, 49.619919 ], [ 6.816464, 49.619914 ], [ 6.816459, 49.620509 ], [ 6.816769, 49.620514 ], [ 6.816764, 49.621154 ], [ 6.816454, 49.621154 ], [ 6.816449, 49.621799 ], [ 6.818259, 49.621814 ], [ 6.818264, 49.621149 ], [ 6.817919, 49.621144 ], [ 6.817924, 49.620529 ], [ 6.818259, 49.620529 ], [ 6.818264, 49.619844 ] ] ] ] } },
{ "type": "Feature", "properties": { }, "geometry": { "type": "MultiPolygon", "coordinates": [ [ [ [ 6.846209, 49.619414 ], [ 6.846014, 49.619419 ], [ 6.846009, 49.619329 ], [ 6.845904, 49.619329 ], [ 6.845904, 49.619289 ], [ 6.845419, 49.619304 ], [ 6.845419, 49.619364 ], [ 6.845314, 49.619369 ], [ 6.845319, 49.619474 ], [ 6.845169, 49.619479 ], [ 6.845179, 49.619674 ], [ 6.845264, 49.619674 ], [ 6.845269, 49.619709 ], [ 6.845169, 49.619709 ], [ 6.845179, 49.619884 ], [ 6.845279, 49.619879 ], [ 6.845294, 49.620159 ], [ 6.845199, 49.620164 ], [ 6.845209, 49.620319 ], [ 6.845304, 49.620314 ], [ 6.845314, 49.620479 ], [ 6.845389, 49.620474 ], [ 6.845399, 49.620659 ], [ 6.845504, 49.620654 ], [ 6.845504, 49.620704 ], [ 6.846014, 49.620689 ], [ 6.846009, 49.620619 ], [ 6.846109, 49.620619 ], [ 6.846104, 49.620429 ], [ 6.846174, 49.620429 ], [ 6.846169, 49.620274 ], [ 6.846264, 49.620269 ], [ 6.846254, 49.620099 ], [ 6.846159, 49.620099 ], [ 6.846144, 49.619834 ], [ 6.846234, 49.619834 ], [ 6.846229, 49.619639 ], [ 6.846114, 49.619644 ], [ 6.846114, 49.619629 ], [ 6.846219, 49.619624 ], [ 6.846209, 49.619414 ] ] ] ] } },
{ "type": "Feature", "properties": { }, "geometry": { "type": "MultiPolygon", "coordinates": [ [ [ [ 6.907474, 49.738529 ], [ 6.907474, 49.738954 ], [ 6.908254, 49.738954 ], [ 6.908254, 49.738529 ], [ 6.907474, 49.738529 ] ] ] ] } },
{ "type": "Feature", "properties": { }, "geometry": { "type": "MultiPolygon", "coordinates": [ [ [ [ 7.263509, 49.841114 ], [ 7.263634, 49.841139 ], [ 7.264269, 49.841144 ], [ 7.264324, 49.839534 ], [ 7.263689, 49.839534 ], [ 7.263549, 49.839529 ], [ 7.263509, 49.841114 ] ] ] ] } },
{ "type": "Feature", "properties": { }, "geometry": { "type": "MultiPolygon", "coordinates": [ [ [ [ 7.213919, 49.770264 ], [ 7.214844, 49.770264 ], [ 7.214844, 49.769784 ], [ 7.214569, 49.769784 ], [ 7.214569, 49.769489 ], [ 7.213919, 49.769489 ], [ 7.213919, 49.770264 ] ] ] ] } },
{ "type": "Feature", "properties": { }, "geometry": { "type": "MultiPolygon", "coordinates": [ [ [ [ 7.360674, 49.797069 ], [ 7.360674, 49.797754 ], [ 7.361184, 49.797754 ], [ 7.361184, 49.797529 ], [ 7.361454, 49.797529 ], [ 7.361454, 49.797069 ], [ 7.360674, 49.797069 ] ] ] ] } },
{ "type": "Feature", "properties": { }, "geometry": { "type": "MultiPolygon", "coordinates": [ [ [ [ 7.239374, 49.739084 ], [ 7.239374, 49.738294 ], [ 7.238809, 49.738294 ], [ 7.238809, 49.739084 ], [ 7.239374, 49.739084 ] ] ] ] } },
{ "type": "Feature", "properties": { }, "geometry": { "type": "MultiPolygon", "coordinates": [ [ [ [ 7.060749, 49.623319 ], [ 7.060749, 49.623754 ], [ 7.061074, 49.623754 ], [ 7.061074, 49.623319 ], [ 7.060749, 49.623319 ] ] ] ] } },
{ "type": "Feature", "properties": { }, "geometry": { "type": "MultiPolygon", "coordinates": [ [ [ [ 6.687959, 49.782019 ], [ 6.687614, 49.781624 ], [ 6.687019, 49.782024 ], [ 6.687369, 49.782419 ], [ 6.687959, 49.782019 ] ] ] ] } },
{ "type": "Feature", "properties": { }, "geometry": { "type": "MultiPolygon", "coordinates": [ [ [ [ 7.196564, 49.823854 ], [ 7.196564, 49.823334 ], [ 7.196309, 49.823334 ], [ 7.196309, 49.823134 ], [ 7.195504, 49.823134 ], [ 7.195504, 49.823619 ], [ 7.195749, 49.823619 ], [ 7.195749, 49.823854 ], [ 7.196564, 49.823854 ] ] ] ] } },
{ "type": "Feature", "properties": { }, "geometry": { "type": "MultiPolygon", "coordinates": [ [ [ [ 7.317494, 49.619784 ], [ 7.317494, 49.620654 ], [ 7.318524, 49.620654 ], [ 7.318524, 49.620194 ], [ 7.318244, 49.620194 ], [ 7.318244, 49.620029 ], [ 7.318029, 49.620029 ], [ 7.318029, 49.619784 ], [ 7.317494, 49.619784 ] ] ] ] } },
{ "type": "Feature", "properties": { }, "geometry": { "type": "MultiPolygon", "coordinates": [ [ [ [ 7.378289, 49.649404 ], [ 7.378294, 49.650559 ], [ 7.379634, 49.650554 ], [ 7.379629, 49.649404 ], [ 7.378289, 49.649404 ] ] ] ] } },
{ "type": "Feature", "properties": { }, "geometry": { "type": "MultiPolygon", "coordinates": [ [ [ [ 6.918044, 50.165759 ], [ 6.918069, 50.166534 ], [ 6.918959, 50.166509 ], [ 6.918949, 50.166264 ], [ 6.918489, 50.166274 ], [ 6.918474, 50.165749 ], [ 6.918044, 50.165759 ] ] ] ] } },
{ "type": "Feature", "properties": { }, "geometry": { "type": "MultiPolygon", "coordinates": [ [ [ [ 6.828914, 49.568754 ], [ 6.828914, 49.568024 ], [ 6.828479, 49.568024 ], [ 6.828479, 49.567904 ], [ 6.828094, 49.567904 ], [ 6.828094, 49.568424 ], [ 6.828459, 49.568424 ], [ 6.828459, 49.568754 ], [ 6.828914, 49.568754 ] ] ] ] } },
{ "type": "Feature", "properties": { }, "geometry": { "type": "MultiPolygon", "coordinates": [ [ [ [ 7.360324, 50.000864 ], [ 7.360109, 50.000494 ], [ 7.359389, 50.000819 ], [ 7.359604, 50.001184 ], [ 7.360324, 50.000864 ] ] ] ] } },
{ "type": "Feature", "properties": { }, "geometry": { "type": "MultiPolygon", "coordinates": [ [ [ [ 7.153454, 49.936559 ], [ 7.154634, 49.936554 ], [ 7.154624, 49.936204 ], [ 7.154494, 49.936209 ], [ 7.154499, 49.935744 ], [ 7.153754, 49.935724 ], [ 7.153749, 49.936069 ], [ 7.153464, 49.936079 ], [ 7.153454, 49.936559 ] ] ] ] } },
{ "type": "Feature", "properties": { }, "geometry": { "type": "MultiPolygon", "coordinates": [ [ [ [ 7.022824, 50.036054 ], [ 7.022824, 50.036489 ], [ 7.023149, 50.036489 ], [ 7.023149, 50.036054 ], [ 7.022824, 50.036054 ] ] ] ] } },
{ "type": "Feature", "properties": { }, "geometry": { "type": "MultiPolygon", "coordinates": [ [ [ [ 7.062429, 49.778419 ], [ 7.062429, 49.778794 ], [ 7.062629, 49.778794 ], [ 7.062629, 49.779029 ], [ 7.063359, 49.779029 ], [ 7.063359, 49.778619 ], [ 7.063154, 49.778619 ], [ 7.063154, 49.778419 ], [ 7.062429, 49.778419 ] ] ] ] } },
{ "type": "Feature", "properties": { }, "geometry": { "type": "MultiPolygon", "coordinates": [ [ [ [ 6.826449, 50.148984 ], [ 6.823014, 50.148979 ], [ 6.823014, 50.150149 ], [ 6.826444, 50.150154 ], [ 6.826449, 50.148984 ] ] ] ] } },
{ "type": "Feature", "properties": { }, "geometry": { "type": "MultiPolygon", "coordinates": [ [ [ [ 6.722539, 50.130844 ], [ 6.722989, 50.131234 ], [ 6.723874, 50.130459 ], [ 6.723424, 50.130064 ], [ 6.722539, 50.130844 ] ] ] ] } },
{ "type": "Feature", "properties": { }, "geometry": { "type": "MultiPolygon", "coordinates": [ [ [ [ 7.146499, 49.670074 ], [ 7.145899, 49.670074 ], [ 7.145899, 49.670744 ], [ 7.146154, 49.670744 ], [ 7.146154, 49.670934 ], [ 7.146499, 49.670934 ], [ 7.146499, 49.670074 ] ] ] ] } },
{ "type": "Feature", "properties": { }, "geometry": { "type": "MultiPolygon", "coordinates": [ [ [ [ 7.048264, 49.557424 ], [ 7.048264, 49.558099 ], [ 7.049324, 49.558099 ], [ 7.049324, 49.557649 ], [ 7.049059, 49.557649 ], [ 7.049059, 49.557189 ], [ 7.048519, 49.557189 ], [ 7.048519, 49.557424 ], [ 7.048264, 49.557424 ] ] ] ] } },
{ "type": "Feature", "properties": { }, "geometry": { "type": "MultiPolygon", "coordinates": [ [ [ [ 7.122749, 49.607134 ], [ 7.122749, 49.605484 ], [ 7.122254, 49.605484 ], [ 7.122254, 49.605669 ], [ 7.121424, 49.605669 ], [ 7.121424, 49.606679 ], [ 7.122279, 49.606679 ], [ 7.122279, 49.607134 ], [ 7.122749, 49.607134 ] ] ] ] } },
{ "type": "Feature", "properties": { }, "geometry": { "type": "MultiPolygon", "coordinates": [ [ [ [ 7.117949, 49.725519 ], [ 7.119584, 49.725564 ], [ 7.119599, 49.724709 ], [ 7.117969, 49.724709 ], [ 7.117949, 49.725519 ] ] ] ] } },
{ "type": "Feature", "properties": { }, "geometry": { "type": "MultiPolygon", "coordinates": [ [ [ [ 7.133894, 49.945229 ], [ 7.133894, 49.946089 ], [ 7.134349, 49.946089 ], [ 7.134349, 49.945229 ], [ 7.133894, 49.945229 ] ] ] ] } },
{ "type": "Feature", "properties": { }, "geometry": { "type": "MultiPolygon", "coordinates": [ [ [ [ 7.234404, 49.503679 ], [ 7.234119, 49.503534 ], [ 7.233834, 49.503969 ], [ 7.234114, 49.504114 ], [ 7.234404, 49.503679 ] ] ] ] } },
{ "type": "Feature", "properties": { }, "geometry": { "type": "MultiPolygon", "coordinates": [ [ [ [ 6.670729, 49.857524 ], [ 6.670729, 49.856934 ], [ 6.669084, 49.856934 ], [ 6.669084, 49.857524 ], [ 6.670729, 49.857524 ] ] ] ] } },
{ "type": "Feature", "properties": { }, "geometry": { "type": "MultiPolygon", "coordinates": [ [ [ [ 6.735829, 49.861084 ], [ 6.735829, 49.861719 ], [ 6.736259, 49.861719 ], [ 6.736259, 49.861084 ], [ 6.735829, 49.861084 ] ] ] ] } },
{ "type": "Feature", "properties": { }, "geometry": { "type": "MultiPolygon", "coordinates": [ [ [ [ 6.736819, 49.842869 ], [ 6.737439, 49.842869 ], [ 6.737439, 49.842659 ], [ 6.737664, 49.842659 ], [ 6.737664, 49.842329 ], [ 6.736819, 49.842329 ], [ 6.736819, 49.842869 ] ] ] ] } },
{ "type": "Feature", "properties": { }, "geometry": { "type": "MultiPolygon", "coordinates": [ [ [ [ 6.752644, 49.841019 ], [ 6.752644, 49.840404 ], [ 6.751839, 49.840404 ], [ 6.751839, 49.841019 ], [ 6.752644, 49.841019 ] ] ] ] } },
{ "type": "Feature", "properties": { }, "geometry": { "type": "MultiPolygon", "coordinates": [ [ [ [ 6.842634, 49.843279 ], [ 6.842634, 49.842454 ], [ 6.842004, 49.842454 ], [ 6.842004, 49.843279 ], [ 6.842634, 49.843279 ] ] ] ] } },
{ "type": "Feature", "properties": { }, "geometry": { "type": "MultiPolygon", "coordinates": [ [ [ [ 7.110374, 49.888274 ], [ 7.110374, 49.888934 ], [ 7.110924, 49.888934 ], [ 7.110924, 49.888274 ], [ 7.110374, 49.888274 ] ] ] ] } },
{ "type": "Feature", "properties": { }, "geometry": { "type": "MultiPolygon", "coordinates": [ [ [ [ 7.147194, 49.891369 ], [ 7.147844, 49.891384 ], [ 7.147854, 49.890959 ], [ 7.147189, 49.890949 ], [ 7.147194, 49.891369 ] ] ] ] } },
{ "type": "Feature", "properties": { }, "geometry": { "type": "MultiPolygon", "coordinates": [ [ [ [ 6.812609, 49.797454 ], [ 6.812584, 49.797974 ], [ 6.813254, 49.797994 ], [ 6.813279, 49.797479 ], [ 6.812609, 49.797454 ] ] ] ] } },
{ "type": "Feature", "properties": { }, "geometry": { "type": "MultiPolygon", "coordinates": [ [ [ [ 7.121844, 49.532844 ], [ 7.121474, 49.533194 ], [ 7.122234, 49.533819 ], [ 7.122784, 49.533304 ], [ 7.122179, 49.532809 ], [ 7.122004, 49.532974 ], [ 7.121844, 49.532844 ] ] ] ] } },
{ "type": "Feature", "properties": { }, "geometry": { "type": "MultiPolygon", "coordinates": [ [ [ [ 7.129604, 49.547969 ], [ 7.129184, 49.548304 ], [ 7.129089, 49.548214 ], [ 7.128764, 49.548474 ], [ 7.129424, 49.549114 ], [ 7.129539, 49.549024 ], [ 7.129754, 49.549239 ], [ 7.129994, 49.549054 ], [ 7.129759, 49.548824 ], [ 7.130159, 49.548509 ], [ 7.129604, 49.547969 ] ] ] ] } },
{ "type": "Feature", "properties": { }, "geometry": { "type": "MultiPolygon", "coordinates": [ [ [ [ 7.140569, 50.027194 ], [ 7.141769, 50.027934 ], [ 7.142019, 50.027614 ], [ 7.142149, 50.027694 ], [ 7.142394, 50.027384 ], [ 7.142279, 50.027319 ], [ 7.142494, 50.027054 ], [ 7.141649, 50.026534 ], [ 7.141184, 50.027114 ], [ 7.140819, 50.026884 ], [ 7.140569, 50.027194 ] ] ] ] } },
{ "type": "Feature", "properties": { }, "geometry": { "type": "MultiPolygon", "coordinates": [ [ [ [ 6.757259, 49.955924 ], [ 6.756689, 49.955909 ], [ 6.756679, 49.956239 ], [ 6.756849, 49.956244 ], [ 6.756844, 49.956409 ], [ 6.757244, 49.956419 ], [ 6.757259, 49.955924 ] ] ] ] } },
{ "type": "Feature", "properties": { }, "geometry": { "type": "MultiPolygon", "coordinates": [ [ [ [ 7.296464, 50.070964 ], [ 7.296504, 50.070149 ], [ 7.295899, 50.070124 ], [ 7.295864, 50.070944 ], [ 7.296464, 50.070964 ] ] ] ] } },
{ "type": "Feature", "properties": { }, "geometry": { "type": "MultiPolygon", "coordinates": [ [ [ [ 7.215159, 50.011214 ], [ 7.214399, 50.011204 ], [ 7.214389, 50.011664 ], [ 7.215154, 50.011674 ], [ 7.215159, 50.011214 ] ] ] ] } },
{ "type": "Feature", "properties": { }, "geometry": { "type": "MultiPolygon", "coordinates": [ [ [ [ 6.784199, 49.893424 ], [ 6.785609, 49.893434 ], [ 6.785614, 49.893354 ], [ 6.785459, 49.893354 ], [ 6.785469, 49.892169 ], [ 6.784949, 49.892169 ], [ 6.784954, 49.891699 ], [ 6.785404, 49.891704 ], [ 6.785414, 49.890214 ], [ 6.784224, 49.890209 ], [ 6.784199, 49.893424 ] ] ] ] } },
{ "type": "Feature", "properties": { }, "geometry": { "type": "MultiPolygon", "coordinates": [ [ [ [ 6.913779, 50.036334 ], [ 6.913774, 50.035954 ], [ 6.912944, 50.035964 ], [ 6.912949, 50.036339 ], [ 6.913779, 50.036334 ] ] ] ] } },
{ "type": "Feature", "properties": { }, "geometry": { "type": "MultiPolygon", "coordinates": [ [ [ [ 7.177094, 49.729129 ], [ 7.176734, 49.729124 ], [ 7.176714, 49.729714 ], [ 7.177554, 49.729729 ], [ 7.177564, 49.729294 ], [ 7.177089, 49.729284 ], [ 7.177094, 49.729129 ] ] ] ] } },
{ "type": "Feature", "properties": { }, "geometry": { "type": "MultiPolygon", "coordinates": [ [ [ [ 6.675024, 49.988554 ], [ 6.675504, 49.988699 ], [ 6.675734, 49.988104 ], [ 6.675249, 49.987964 ], [ 6.675024, 49.988554 ] ] ] ] } },
{ "type": "Feature", "properties": { }, "geometry": { "type": "MultiPolygon", "coordinates": [ [ [ [ 6.696954, 50.166754 ], [ 6.694544, 50.166689 ], [ 6.694529, 50.167214 ], [ 6.696934, 50.167279 ], [ 6.696954, 50.166754 ] ] ] ] } },
{ "type": "Feature", "properties": { }, "geometry": { "type": "MultiPolygon", "coordinates": [ [ [ [ 7.245529, 50.076279 ], [ 7.245154, 50.076344 ], [ 7.245439, 50.077614 ], [ 7.247129, 50.077324 ], [ 7.247024, 50.076849 ], [ 7.246559, 50.076929 ], [ 7.246509, 50.076699 ], [ 7.245654, 50.076849 ], [ 7.245529, 50.076279 ] ] ] ] } }
]
}
