{
"type": "FeatureCollection",
"name": "polygons_shifted_100",
"crs": { "type": "name", "properties": { "name": "urn:ogc:def:crs:OGC:1.3:CRS84" } },
"features": [
{ "type": "Feature", "properties": { }, "geometry": { "type": "MultiPolygon", "coordinates": [ [ [ [ 6.664005, 50.063013 ], [ 6.66418, 50.063013 ], [ 6.66418, 50.063038 ], [ 6.664855, 50.063038 ], [ 6.664855, 50.063013 ], [ 6.66501, 50.063013 ], [ 6.66501, 50.063028 ], [ 6.666135, 50.063028 ], [ 6.666135, 50.063943 ], [ 6.66656, 50.063943 ], [ 6.66656, 50.062923 ], [ 6.666155, 50.062923 ], [ 6.666155, 50.062663 ], [ 6.66506, 50.062663 ], [ 6.66506, 50.062648 ], [ 6.66502, 50.062648 ], [ 6.66502, 50.062618 ], [ 6.6648, 50.062618 ], [ 6.6648, 50.062648 ], [ 6.664205, 50.062648 ], [ 6.664205, 50.062628 ], [ 6.664005, 50.062628 ], [ 6.664005, 50.063013 ] ] ] ] } },
{ "type": "Feature", "properties": { }, "geometry": { "type": "MultiPolygon", "coordinates": [ [ [ [ 7.194445, 50.117883 ], [ 7.19518, 50.117888 ], [ 7.19518, 50.117803 ], [ 7.1954, 50.117808 ], [ 7.1954, 50.117488 ], [ 7.195095, 50.117483 ], [ 7.195095, 50.116943 ], [ 7.194545, 50.116943 ], [ 7.194545, 50.117648 ], [ 7.194445, 50.117648 ], [ 7.194445, 50.117883 ] ] ] ] } },
{ "type": "Feature", "properties": { }, "geometry": { "type": "MultiPolygon", "coordinates": [ [ [ [ 7.347815, 49.593758 ], [ 7.34867, 49.593773 ], [ 7.348675, 49.593408 ], [ 7.347825, 49.593393 ], [ 7.347815, 49.593758 ] ] ] ] } },
{ "type": "Feature", "properties": { }, "geometry": { "type": "MultiPolygon", "coordinates": [ [ [ [ 7.18826, 50.003903 ], [ 7.18826, 50.004168 ], [ 7.188465, 50.004168 ], [ 7.18847, 50.003903 ], [ 7.18826, 50.003903 ] ] ] ] } },
{ "type": "Feature", "properties": { }, "geometry": { "type": "MultiPolygon", "coordinates": [ [ [ [ 7.29755, 50.113838 ], [ 7.297545, 50.114283 ], [ 7.297785, 50.114283 ], [ 7.29779, 50.113838 ], [ 7.29755, 50.113838 ] ] ] ] } },
{ "type": "Feature", "properties": { }, "geometry": { "type": "MultiPolygon", "coordinates": [ [ [ [ 7.279385, 49.997403 ], [ 7.279635, 49.997663 ], [ 7.279705, 49.997608 ], [ 7.28034, 49.998253 ], [ 7.282325, 49.996758 ], [ 7.281435, 49.995848 ], [ 7.28111, 49.996093 ], [ 7.281215, 49.996203 ], [ 7.27983, 49.997248 ], [ 7.27973, 49.997143 ], [ 7.279385, 49.997403 ] ] ] ] } },
{ "type": "Feature", "properties": { }, "geometry": { "type": "MultiPolygon", "coordinates": [ [ [ [ 6.986315, 49.820803 ], [ 6.986845, 49.820803 ], [ 6.986845, 49.820638 ], [ 6.986985, 49.820638 ], [ 6.986985, 49.820398 ], [ 6.986225, 49.820398 ], [ 6.986225, 49.820643 ], [ 6.986315, 49.820643 ], [ 6.986315, 49.820803 ] ] ] ] } },
{ "type": "Feature", "properties": { }, "geometry": { "type": "MultiPolygon", "coordinates": [ [ [ [ 7.16314, 49.897278 ], [ 7.16315, 49.896948 ], [ 7.162845, 49.896943 ], [ 7.162855, 49.896693 ], [ 7.162135, 49.896678 ], [ 7.16212, 49.897258 ], [ 7.16314, 49.897278 ] ] ] ] } },
{ "type": "Feature", "properties": { }, "geometry": { "type": "MultiPolygon", "coordinates": [ [ [ [ 6.64653, 49.768808 ], [ 6.646795, 49.769083 ], [ 6.647065, 49.768883 ], [ 6.647465, 49.769318 ], [ 6.6472, 49.769518 ], [ 6.64744, 49.769788 ], [ 6.64773, 49.769573 ], [ 6.64767, 49.769513 ], [ 6.647965, 49.769313 ], [ 6.64786, 49.769188 ], [ 6.64827, 49.768883 ], [ 6.648405, 49.769008 ], [ 6.648725, 49.768748 ], [ 6.648875, 49.768898 ], [ 6.64903, 49.768788 ], [ 6.64938, 49.769148 ], [ 6.649675, 49.768938 ], [ 6.64964, 49.768903 ], [ 6.64979, 49.768793 ], [ 6.64982, 49.768843 ], [ 6.650105, 49.768628 ], [ 6.64978, 49.768263 ], [ 6.64992, 49.768168 ], [ 6.64978, 49.767998 ], [ 6.65013, 49.767748 ], [ 6.65002, 49.767623 ], [ 6.65043, 49.767338 ], [ 6.65055, 49.767458 ], [ 6.650865, 49.767218 ], [ 6.65028, 49.766583 ], [ 6.65056, 49.766368 ], [ 6.65035, 49.766143 ], [ 6.65025, 49.766218 ], [ 6.6502, 49.766168 ], [ 6.650095, 49.766253 ], [ 6.650145, 49.766318 ], [ 6.649775, 49.766598 ], [ 6.649875, 49.766713 ], [ 6.64946, 49.767008 ], [ 6.64934, 49.766893 ], [ 6.649135, 49.767053 ], [ 6.64908, 49.766993 ], [ 6.649005, 49.767043 ], [ 6.64898, 49.767013 ], [ 6.648845, 49.767113 ], [ 6.648875, 49.767153 ], [ 6.64879, 49.767203 ], [ 6.649055, 49.767468 ], [ 6.64932, 49.767278 ], [ 6.649665, 49.767643 ], [ 6.64925, 49.767948 ], [ 6.649355, 49.768058 ], [ 6.649295, 49.768108 ], [ 6.649415, 49.768238 ], [ 6.649095, 49.768483 ], [ 6.648965, 49.768343 ], [ 6.648895, 49.768388 ], [ 6.648775, 49.768268 ], [ 6.648365, 49.768578 ], [ 6.64804, 49.768218 ], [ 6.64832, 49.768018 ], [ 6.648085, 49.767778 ], [ 6.647995, 49.767828 ], [ 6.64795, 49.767783 ], [ 6.64784, 49.767863 ], [ 6.647915, 49.767943 ], [ 6.647605, 49.768148 ], [ 6.647705, 49.768268 ], [ 6.647275, 49.768558 ], [ 6.647155, 49.768443 ], [ 6.64686, 49.768653 ], [ 6.64683, 49.768608 ], [ 6.64675, 49.768668 ], [ 6.646725, 49.768638 ], [ 6.6466, 49.768728 ], [ 6.64663, 49.768753 ], [ 6.64653, 49.768808 ] ] ] ] } },
{ "type": "Feature", "properties": { }, "geometry": { "type": "MultiPolygon", "coordinates": [ [ [ [ 6.80443, 49.526003 ], [ 6.80443, 49.526108 ], [ 6.804265, 49.526108 ], [ 6.80426, 49.526518 ], [ 6.80484, 49.526518 ], [ 6.80484, 49.526123 ], [ 6.80495, 49.526123 ], [ 6.804955, 49.526003 ], [ 6.804845, 49.526003 ], [ 6.804845, 49.525628 ], [ 6.804915, 49.525628 ], [ 6.80492, 49.525228 ], [ 6.80503, 49.525228 ], [ 6.80503, 49.525118 ], [ 6.80492, 49.525118 ], [ 6.804925, 49.524718 ], [ 6.804335, 49.524713 ], [ 6.80433, 49.525118 ], [ 6.8045, 49.525118 ], [ 6.8045, 49.525228 ], [ 6.80433, 49.525228 ], [ 6.804325, 49.525498 ], [ 6.804275, 49.525498 ], [ 6.804265, 49.525998 ], [ 6.80443, 49.526003 ] ] ] ] } },
{ "type": "Feature", "properties": { }, "geometry": { "type": "MultiPolygon", "coordinates": [ [ [ [ 7.31646, 50.161623 ], [ 7.31739, 50.161798 ], [ 7.31742, 50.161653 ], [ 7.317535, 50.161228 ], [ 7.31758, 50.161018 ], [ 7.31665, 50.160848 ], [ 7.31646, 50.161623 ] ] ] ] } },
{ "type": "Feature", "properties": { }, "geometry": { "type": "MultiPolygon", "coordinates": [ [ [ [ 6.82463, 49.579353 ], [ 6.82463, 49.578718 ], [ 6.82396, 49.578718 ], [ 6.82396, 49.579353 ], [ 6.82463, 49.579353 ] ] ] ] } },
{ "type": "Feature", "properties": { }, "geometry": { "type": "MultiPolygon", "coordinates": [ [ [ [ 6.82534, 49.620718 ], [ 6.82377, 49.620708 ], [ 6.82377, 49.620793 ], [ 6.82354, 49.620788 ], [ 6.823535, 49.621383 ], [ 6.823845, 49.621388 ], [ 6.82384, 49.622028 ], [ 6.82353, 49.622028 ], [ 6.823525, 49.622673 ], [ 6.825335, 49.622688 ], [ 6.82534, 49.622023 ], [ 6.824995, 49.622018 ], [ 6.825, 49.621403 ], [ 6.825335, 49.621403 ], [ 6.82534, 49.620718 ] ] ] ] } },
{ "type": "Feature", "properties": { }, "geometry": { "type": "MultiPolygon", "coordinates": [ [ [ [ 6.853285, 49.620288 ], [ 6.85309, 49.620293 ], [ 6.853085, 49.620203 ], [ 6.85298, 49.620203 ], [ 6.85298, 49.620163 ], [ 6.852495, 49.620178 ], [ 6.852495, 49.620238 ], [ 6.85239, 49.620243 ], [ 6.852395, 49.620348 ], [ 6.852245, 49.620353 ], [ 6.852255, 49.620548 ], [ 6.85234, 49.620548 ], [ 6.852345, 49.620583 ], [ 6.852245, 49.620583 ], [ 6.852255, 49.620758 ], [ 6.852355, 49.620753 ], [ 6.85237, 49.621033 ], [ 6.852275, 49.621038 ], [ 6.852285, 49.621193 ], [ 6.85238, 49.621188 ], [ 6.85239, 49.621353 ], [ 6.852465, 49.621348 ], [ 6.852475, 49.621533 ], [ 6.85258, 49.621528 ], [ 6.85258, 49.621578 ], [ 6.85309, 49.621563 ], [ 6.853085, 49.621493 ], [ 6.853185, 49.621493 ], [ 6.85318, 49.621303 ], [ 6.85325, 49.621303 ], [ 6.853245, 49.621148 ], [ 6.85334, 49.621143 ], [ 6.85333, 49.620973 ], [ 6.853235, 49.620973 ], [ 6.85322, 49.620708 ], [ 6.85331, 49.620708 ], [ 6.853305, 49.620513 ], [ 6.85319, 49.620518 ], [ 6.85319, 49.620503 ], [ 6.853295, 49.620498 ], [ 6.853285, 49.620288 ] ] ] ] } },
{ "type": "Feature", "properties": { }, "geometry": { "type": "MultiPolygon", "coordinates": [ [ [ [ 6.91455, 49.739403 ], [ 6.91455, 49.739828 ], [ 6.91533, 49.739828 ], [ 6.91533, 49.739403 ], [ 6.91455, 49.739403 ] ] ] ] } },
{ "type": "Feature", "properties": { }, "geometry": { "type": "MultiPolygon", "coordinates": [ [ [ [ 7.270585, 49.841988 ], [ 7.27071, 49.842013 ], [ 7.271345, 49.842018 ], [ 7.2714, 49.840408 ], [ 7.270765, 49.840408 ], [ 7.270625, 49.840403 ], [ 7.270585, 49.841988 ] ] ] ] } },
{ "type": "Feature", "properties": { }, "geometry": { "type": "MultiPolygon", "coordinates": [ [ [ [ 7.160925, 49.831478 ], [ 7.160925, 49.831113 ], [ 7.159825, 49.831113 ], [ 7.159825, 49.831688 ], [ 7.16066, 49.831688 ], [ 7.16066, 49.831478 ], [ 7.160925, 49.831478 ] ] ] ] } },
{ "type": "Feature", "properties": { }, "geometry": { "type": "MultiPolygon", "coordinates": [ [ [ [ 7.155645, 49.829333 ], [ 7.155645, 49.828603 ], [ 7.15524, 49.828603 ], [ 7.15524, 49.828758 ], [ 7.154905, 49.828758 ], [ 7.154905, 49.829088 ], [ 7.155175, 49.829088 ], [ 7.155175, 49.829333 ], [ 7.155645, 49.829333 ] ] ] ] } },
{ "type": "Feature", "properties": { }, "geometry": { "type": "MultiPolygon", "coordinates": [ [ [ [ 7.201265, 49.746438 ], [ 7.200125, 49.746438 ], [ 7.200125, 49.747053 ], [ 7.200395, 49.747053 ], [ 7.200395, 49.747288 ], [ 7.200985, 49.747288 ], [ 7.200985, 49.746853 ], [ 7.201265, 49.746853 ], [ 7.201265, 49.746438 ] ] ] ] } },
{ "type": "Feature", "properties": { }, "geometry": { "type": "MultiPolygon", "coordinates": [ [ [ [ 7.220995, 49.771138 ], [ 7.22192, 49.771138 ], [ 7.22192, 49.770658 ], [ 7.221645, 49.770658 ], [ 7.221645, 49.770363 ], [ 7.220995, 49.770363 ], [ 7.220995, 49.771138 ] ] ] ] } },
{ "type": "Feature", "properties": { }, "geometry": { "type": "MultiPolygon", "coordinates": [ [ [ [ 7.36775, 49.797943 ], [ 7.36775, 49.798628 ], [ 7.36826, 49.798628 ], [ 7.36826, 49.798403 ], [ 7.36853, 49.798403 ], [ 7.36853, 49.797943 ], [ 7.36775, 49.797943 ] ] ] ] } },
{ "type": "Feature", "properties": { }, "geometry": { "type": "MultiPolygon", "coordinates": [ [ [ [ 7.26551, 49.785423 ], [ 7.26551, 49.785033 ], [ 7.265795, 49.785028 ], [ 7.26579, 49.784548 ], [ 7.26494, 49.784553 ], [ 7.26495, 49.785423 ], [ 7.26551, 49.785423 ] ] ] ] } },
{ "type": "Feature", "properties": { }, "geometry": { "type": "MultiPolygon", "coordinates": [ [ [ [ 7.28612, 49.784628 ], [ 7.28612, 49.784113 ], [ 7.28542, 49.784113 ], [ 7.28542, 49.784628 ], [ 7.28612, 49.784628 ] ] ] ] } },
{ "type": "Feature", "properties": { }, "geometry": { "type": "MultiPolygon", "coordinates": [ [ [ [ 7.24645, 49.739958 ], [ 7.24645, 49.739168 ], [ 7.245885, 49.739168 ], [ 7.245885, 49.739958 ], [ 7.24645, 49.739958 ] ] ] ] } },
{ "type": "Feature", "properties": { }, "geometry": { "type": "MultiPolygon", "coordinates": [ [ [ [ 7.117555, 49.679303 ], [ 7.118425, 49.679303 ], [ 7.118425, 49.678398 ], [ 7.117555, 49.678398 ], [ 7.117555, 49.679303 ] ] ] ] } },
{ "type": "Feature", "properties": { }, "geometry": { "type": "MultiPolygon", "coordinates": [ [ [ [ 7.067825, 49.624193 ], [ 7.067825, 49.624628 ], [ 7.06815, 49.624628 ], [ 7.06815, 49.624193 ], [ 7.067825, 49.624193 ] ] ] ] } },
{ "type": "Feature", "properties": { }, "geometry": { "type": "MultiPolygon", "coordinates": [ [ [ [ 6.702415, 50.023173 ], [ 6.702415, 50.023798 ], [ 6.70298, 50.023798 ], [ 6.70298, 50.023618 ], [ 6.70337, 50.023618 ], [ 6.70337, 50.023173 ], [ 6.702415, 50.023173 ] ] ] ] } },
{ "type": "Feature", "properties": { }, "geometry": { "type": "MultiPolygon", "coordinates": [ [ [ [ 6.81547, 50.045193 ], [ 6.81547, 50.045548 ], [ 6.816035, 50.045548 ], [ 6.816035, 50.045348 ], [ 6.815795, 50.045348 ], [ 6.815795, 50.045193 ], [ 6.81547, 50.045193 ] ] ] ] } },
{ "type": "Feature", "properties": { }, "geometry": { "type": "MultiPolygon", "coordinates": [ [ [ [ 6.695035, 49.782893 ], [ 6.69469, 49.782498 ], [ 6.694095, 49.782898 ], [ 6.694445, 49.783293 ], [ 6.695035, 49.782893 ] ] ] ] } },
{ "type": "Feature", "properties": { }, "geometry": { "type": "MultiPolygon", "coordinates": [ [ [ [ 7.20364, 49.824728 ], [ 7.20364, 49.824208 ], [ 7.203385, 49.824208 ], [ 7.203385, 49.824008 ], [ 7.20258, 49.824008 ], [ 7.20258, 49.824493 ], [ 7.202825, 49.824493 ], [ 7.202825, 49.824728 ], [ 7.20364, 49.824728 ] ] ] ] } },
{ "type": "Feature", "properties": { }, "geometry": { "type": "MultiPolygon", "coordinates": [ [ [ [ 7.32457, 49.620658 ], [ 7.32457, 49.621528 ], [ 7.3256, 49.621528 ], [ 7.3256, 49.621068 ], [ 7.32532, 49.621068 ], [ 7.32532, 49.620903 ], [ 7.325105, 49.620903 ], [ 7.325105, 49.620658 ], [ 7.32457, 49.620658 ] ] ] ] } },
{ "type": "Feature", "properties": { }, "geometry": { "type": "MultiPolygon", "coordinates": [ [ [ [ 7.385365, 49.650278 ], [ 7.38537, 49.651433 ], [ 7.38671, 49.651428 ], [ 7.386705, 49.650278 ], [ 7.385365, 49.650278 ] ] ] ] } },
{ "type": "Feature", "properties": { }, "geometry": { "type": "MultiPolygon", "coordinates": [ [ [ [ 7.375825, 50.107633 ], [ 7.375825, 50.107223 ], [ 7.375315, 50.107223 ], [ 7.375315, 50.106798 ], [ 7.374805, 50.106798 ], [ 7.374805, 50.107633 ], [ 7.375825, 50.107633 ] ] ] ] } },
{ "type": "Feature", "properties": { }, "geometry": { "type": "MultiPolygon", "coordinates": [ [ [ [ 7.239835, 49.676873 ], [ 7.239835, 49.676013 ], [ 7.23902, 49.676013 ], [ 7.23902, 49.676873 ], [ 7.239835, 49.676873 ] ] ] ] } },
{ "type": "Feature", "properties": { }, "geometry": { "type": "MultiPolygon", "coordinates": [ [ [ [ 6.92512, 50.166633 ], [ 6.925145, 50.167408 ], [ 6.926035, 50.167383 ], [ 6.926025, 50.167138 ], [ 6.925565, 50.167148 ], [ 6.92555, 50.166623 ], [ 6.92512, 50.166633 ] ] ] ] } },
{ "type": "Feature", "properties": { }, "geometry": { "type": "MultiPolygon", "coordinates": [ [ [ [ 6.83599, 49.569628 ], [ 6.83599, 49.568898 ], [ 6.835555, 49.568898 ], [ 6.835555, 49.568778 ], [ 6.83517, 49.568778 ], [ 6.83517, 49.569298 ], [ 6.835535, 49.569298 ], [ 6.835535, 49.569628 ], [ 6.83599, 49.569628 ] ] ] ] } },
{ "type": "Feature", "properties": { }, "geometry": { "type": "MultiPolygon", "coordinates": [ [ [ [ 6.92024, 49.921618 ], [ 6.919985, 49.921613 ], [ 6.91999, 49.921383 ], [ 6.919445, 49.921373 ], [ 6.91944, 49.921568 ], [ 6.919155, 49.921563 ], [ 6.91913, 49.922683 ], [ 6.920215, 49.922698 ], [ 6.92024, 49.921618 ] ] ] ] } },
{ "type": "Feature", "properties": { }, "geometry": { "type": "MultiPolygon", "coordinates": [ [ [ [ 6.92636, 49.841383 ], [ 6.92635, 49.839853 ], [ 6.9252, 49.839863 ], [ 6.925205, 49.841068 ], [ 6.925375, 49.841068 ], [ 6.92538, 49.841388 ], [ 6.92636, 49.841383 ] ] ] ] } },
{ "type": "Feature", "properties": { }, "geometry": { "type": "MultiPolygon", "coordinates": [ [ [ [ 7.034395, 49.669003 ], [ 7.03518, 49.669113 ], [ 7.03523, 49.668833 ], [ 7.03496, 49.668798 ], [ 7.03505, 49.668283 ], [ 7.034535, 49.668208 ], [ 7.034395, 49.669003 ] ] ] ] } },
{ "type": "Feature", "properties": { }, "geometry": { "type": "MultiPolygon", "coordinates": [ [ [ [ 7.020365, 49.669768 ], [ 7.020365, 49.670548 ], [ 7.021075, 49.670548 ], [ 7.021075, 49.670028 ], [ 7.021345, 49.670028 ], [ 7.021345, 49.669523 ], [ 7.02086, 49.669523 ], [ 7.02086, 49.669768 ], [ 7.020365, 49.669768 ] ] ] ] } },
{ "type": "Feature", "properties": { }, "geometry": { "type": "MultiPolygon", "coordinates": [ [ [ [ 7.140865, 50.135183 ], [ 7.140865, 50.135623 ], [ 7.14207, 50.135623 ], [ 7.14207, 50.135183 ], [ 7.140865, 50.135183 ] ] ] ] } },
{ "type": "Feature", "properties": { }, "geometry": { "type": "MultiPolygon", "coordinates": [ [ [ [ 7.35375, 49.951888 ], [ 7.354105, 49.952113 ], [ 7.35444, 49.951703 ], [ 7.35409, 49.951478 ], [ 7.35375, 49.951888 ] ] ] ] } },
{ "type": "Feature", "properties": { }, "geometry": { "type": "MultiPolygon", "coordinates": [ [ [ [ 7.3674, 50.001738 ], [ 7.367185, 50.001368 ], [ 7.366465, 50.001693 ], [ 7.36668, 50.002058 ], [ 7.3674, 50.001738 ] ] ] ] } },
{ "type": "Feature", "properties": { }, "geometry": { "type": "MultiPolygon", "coordinates": [ [ [ [ 7.16053, 49.937433 ], [ 7.16171, 49.937428 ], [ 7.1617, 49.937078 ], [ 7.16157, 49.937083 ], [ 7.161575, 49.936618 ], [ 7.16083, 49.936598 ], [ 7.160825, 49.936943 ], [ 7.16054, 49.936953 ], [ 7.16053, 49.937433 ] ] ] ] } },
{ "type": "Feature", "properties": { }, "geometry": { "type": "MultiPolygon", "coordinates": [ [ [ [ 7.077415, 49.903003 ], [ 7.07791, 49.903003 ], [ 7.07791, 49.902328 ], [ 7.077415, 49.902328 ], [ 7.077415, 49.903003 ] ] ] ] } },
{ "type": "Feature", "properties": { }, "geometry": { "type": "MultiPolygon", "coordinates": [ [ [ [ 7.0299, 50.036928 ], [ 7.0299, 50.037363 ], [ 7.030225, 50.037363 ], [ 7.030225, 50.036928 ], [ 7.0299, 50.036928 ] ] ] ] } },
{ "type": "Feature", "properties": { }, "geometry": { "type": "MultiPolygon", "coordinates": [ [ [ [ 7.03693, 50.026883 ], [ 7.03571, 50.026883 ], [ 7.03571, 50.027413 ], [ 7.03693, 50.027413 ], [ 7.03693, 50.026883 ] ] ] ] } },
{ "type": "Feature", "properties": { }, "geometry": { "type": "MultiPolygon", "coordinates": [ [ [ [ 6.97615, 49.737753 ], [ 6.975545, 49.737753 ], [ 6.975545, 49.738428 ], [ 6.97615, 49.738428 ], [ 6.97615, 49.737753 ] ] ] ] } },
{ "type": "Feature", "properties": { }, "geometry": { "type": "MultiPolygon", "coordinates": [ [ [ [ 7.069505, 49.779293 ], [ 7.069505, 49.779668 ], [ 7.069705, 49.779668 ], [ 7.069705, 49.779903 ], [ 7.070435, 49.779903 ], [ 7.070435, 49.779493 ], [ 7.07023, 49.779493 ], [ 7.07023, 49.779293 ], [ 7.069505, 49.779293 ] ] ] ] } },
{ "type": "Feature", "properties": { }, "geometry": { "type": "MultiPolygon", "coordinates": [ [ [ [ 7.019695, 49.997173 ], [ 7.01971, 49.996593 ], [ 7.019095, 49.996583 ], [ 7.0191, 49.996333 ], [ 7.0187, 49.996328 ], [ 7.01867, 49.997398 ], [ 7.01942, 49.997413 ], [ 7.01943, 49.997168 ], [ 7.019695, 49.997173 ] ] ] ] } },
{ "type": "Feature", "properties": { }, "geometry": { "type": "MultiPolygon", "coordinates": [ [ [ [ 6.833525, 50.149858 ], [ 6.83009, 50.149853 ], [ 6.83009, 50.151023 ], [ 6.83352, 50.151028 ], [ 6.833525, 50.149858 ] ] ] ] } },
{ "type": "Feature", "properties": { }, "geometry": { "type": "MultiPolygon", "coordinates": [ [ [ [ 6.729615, 50.131718 ], [ 6.730065, 50.132108 ], [ 6.73095, 50.131333 ], [ 6.7305, 50.130938 ], [ 6.729615, 50.131718 ] ] ] ] } },
{ "type": "Feature", "properties": { }, "geometry": { "type": "MultiPolygon", "coordinates": [ [ [ [ 6.71587, 50.107033 ], [ 6.71587, 50.107683 ], [ 6.71667, 50.107683 ], [ 6.71667, 50.107258 ], [ 6.71635, 50.107258 ], [ 6.71635, 50.107033 ], [ 6.71587, 50.107033 ] ] ] ] } },
{ "type": "Feature", "properties": { }, "geometry": { "type": "MultiPolygon", "coordinates": [ [ [ [ 6.714755, 50.134023 ], [ 6.713975, 50.134023 ], [ 6.713975, 50.134493 ], [ 6.714755, 50.134493 ], [ 6.714755, 50.134023 ] ] ] ] } },
{ "type": "Feature", "properties": { }, "geometry": { "type": "MultiPolygon", "coordinates": [ [ [ [ 6.96266, 50.013833 ], [ 6.96326, 50.013833 ], [ 6.96326, 50.013363 ], [ 6.96266, 50.013363 ], [ 6.96266, 50.013833 ] ] ] ] } },
{ "type": "Feature", "properties": { }, "geometry": { "type": "MultiPolygon", "coordinates": [ [ [ [ 6.974285, 49.941463 ], [ 6.97501, 49.941463 ], [ 6.97501, 49.940723 ], [ 6.974285, 49.940723 ], [ 6.974285, 49.941463 ] ] ] ] } },
{ "type": "Feature", "properties": { }, "geometry": { "type": "MultiPolygon", "coordinates": [ [ [ [ 7.153575, 49.670948 ], [ 7.152975, 49.670948 ], [ 7.152975, 49.671618 ], [ 7.15323, 49.671618 ], [ 7.15323, 49.671808 ], [ 7.153575, 49.671808 ], [ 7.153575, 49.670948 ] ] ] ] } },
{ "type": "Feature", "properties": { }, "geometry": { "type": "MultiPolygon", "coordinates": [ [ [ [ 7.05534, 49.558298 ], [ 7.05534, 49.558973 ], [ 7.0564, 49.558973 ], [ 7.0564, 49.558523 ], [ 7.056135, 49.558523 ], [ 7.056135, 49.558063 ], [ 7.055595, 49.558063 ], [ 7.055595, 49.558298 ], [ 7.05534, 49.558298 ] ] ] ] } },
{ "type": "Feature", "properties": { }, "geometry": { "type": "MultiPolygon", "coordinates": [ [ [ [ 7.129825, 49.608008 ], [ 7.129825, 49.606358 ], [ 7.12933, 49.606358 ], [ 7.12933, 49.606543 ], [ 7.1285, 49.606543 ], [ 7.1285, 49.607553 ], [ 7.129355, 49.607553 ], [ 7.129355, 49.608008 ], [ 7.129825, 49.608008 ] ] ] ] } },
{ "type": "Feature", "properties": { }, "geometry": { "type": "MultiPolygon", "coordinates": [ [ [ [ 7.125025, 49.726393 ], [ 7.12666, 49.726438 ], [ 7.126675, 49.725583 ], [ 7.125045, 49.725583 ], [ 7.125025, 49.726393 ] ] ] ] } },
{ "type": "Feature", "properties": { }, "geometry": { "type": "MultiPolygon", "coordinates": [ [ [ [ 7.101865, 49.837968 ], [ 7.10082, 49.837968 ], [ 7.10082, 49.838408 ], [ 7.101865, 49.838408 ], [ 7.101865, 49.837968 ] ] ] ] } },
{ "type": "Feature", "properties": { }, "geometry": { "type": "MultiPolygon", "coordinates": [ [ [ [ 6.99498, 49.841538 ], [ 6.99498, 49.841008 ], [ 6.99427, 49.841008 ], [ 6.99427, 49.841538 ], [ 6.99498, 49.841538 ] ] ] ] } },
{ "type": "Feature", "properties": { }, "geometry": { "type": "MultiPolygon", "coordinates": [ [ [ [ 7.14097, 49.946103 ], [ 7.14097, 49.946963 ], [ 7.141425, 49.946963 ], [ 7.141425, 49.946103 ], [ 7.14097, 49.946103 ] ] ] ] } },
{ "type": "Feature", "properties": { }, "geometry": { "type": "MultiPolygon", "coordinates": [ [ [ [ 7.356985, 50.131558 ], [ 7.356165, 50.131558 ], [ 7.356165, 50.132433 ], [ 7.35669, 50.132433 ], [ 7.35669, 50.131963 ], [ 7.356985, 50.131963 ], [ 7.356985, 50.131558 ] ] ] ] } },
{ "type": "Feature", "properties": { }, "geometry": { "type": "MultiPolygon", "coordinates": [ [ [ [ 7.24148, 49.504553 ], [ 7.241195, 49.504408 ], [ 7.24091, 49.504843 ], [ 7.24119, 49.504988 ], [ 7.24148, 49.504553 ] ] ] ] } },
{ "type": "Feature", "properties": { }, "geometry": { "type": "MultiPolygon", "coordinates": [ [ [ [ 7.26387, 49.539078 ], [ 7.264165, 49.538108 ], [ 7.26366, 49.537993 ], [ 7.263585, 49.538253 ], [ 7.2635, 49.538233 ], [ 7.263525, 49.538188 ], [ 7.262945, 49.538058 ], [ 7.262775, 49.538823 ], [ 7.26387, 49.539078 ] ] ] ] } },
{ "type": "Feature", "properties": { }, "geometry": { "type": "MultiPolygon", "coordinates": [ [ [ [ 6.677805, 49.858398 ], [ 6.677805, 49.857808 ], [ 6.67616, 49.857808 ], [ 6.67616, 49.858398 ], [ 6.677805, 49.858398 ] ] ] ] } },
{ "type": "Feature", "properties": { }, "geometry": { "type": "MultiPolygon", "coordinates": [ [ [ [ 6.742905, 49.861958 ], [ 6.742905, 49.862593 ], [ 6.743335, 49.862593 ], [ 6.743335, 49.861958 ], [ 6.742905, 49.861958 ] ] ] ] } },
{ "type": "Feature", "properties": { }, "geometry": { "type": "MultiPolygon", "coordinates": [ [ [ [ 6.743895, 49.843743 ], [ 6.744515, 49.843743 ], [ 6.744515, 49.843533 ], [ 6.74474, 49.843533 ], [ 6.74474, 49.843203 ], [ 6.743895, 49.843203 ], [ 6.743895, 49.843743 ] ] ] ] } },
{ "type": "Feature", "properties": { }, "geometry": { "type": "MultiPolygon", "coordinates": [ [ [ [ 6.75972, 49.841893 ], [ 6.75972, 49.841278 ], [ 6.758915, 49.841278 ], [ 6.758915, 49.841893 ], [ 6.75972, 49.841893 ] ] ] ] } },
{ "type": "Feature", "properties": { }, "geometry": { "type": "MultiPolygon", "coordinates": [ [ [ [ 6.75612, 49.809173 ], [ 6.755545, 49.809168 ], [ 6.755535, 49.809753 ], [ 6.756115, 49.809763 ], [ 6.75612, 49.809173 ] ] ] ] } },
{ "type": "Feature", "properties": { }, "geometry": { "type": "MultiPolygon", "coordinates": [ [ [ [ 6.84971, 49.844153 ], [ 6.84971, 49.843328 ], [ 6.84908, 49.843328 ], [ 6.84908, 49.844153 ], [ 6.84971, 49.844153 ] ] ] ] } },
{ "type": "Feature", "properties": { }, "geometry": { "type": "MultiPolygon", "coordinates": [ [ [ [ 6.84551, 49.870168 ], [ 6.84551, 49.869568 ], [ 6.84475, 49.869568 ], [ 6.84475, 49.869723 ], [ 6.844615, 49.869723 ], [ 6.844615, 49.870168 ], [ 6.84551, 49.870168 ] ] ] ] } },
{ "type": "Feature", "properties": { }, "geometry": { "type": "MultiPolygon", "coordinates": [ [ [ [ 6.783475, 49.882363 ], [ 6.78347, 49.883058 ], [ 6.78405, 49.883063 ], [ 6.784055, 49.882368 ], [ 6.783475, 49.882363 ] ] ] ] } },
{ "type": "Feature", "properties": { }, "geometry": { "type": "MultiPolygon", "coordinates": [ [ [ [ 7.11745, 49.889148 ], [ 7.11745, 49.889808 ], [ 7.118, 49.889808 ], [ 7.118, 49.889148 ], [ 7.11745, 49.889148 ] ] ] ] } },
{ "type": "Feature", "properties": { }, "geometry": { "type": "MultiPolygon", "coordinates": [ [ [ [ 7.15427, 49.892243 ], [ 7.15492, 49.892258 ], [ 7.15493, 49.891833 ], [ 7.154265, 49.891823 ], [ 7.15427, 49.892243 ] ] ] ] } },
{ "type": "Feature", "properties": { }, "geometry": { "type": "MultiPolygon", "coordinates": [ [ [ [ 6.742625, 49.731513 ], [ 6.74334, 49.731523 ], [ 6.743345, 49.731168 ], [ 6.74309, 49.731168 ], [ 6.74309, 49.730808 ], [ 6.74263, 49.730808 ], [ 6.742625, 49.731513 ] ] ] ] } },
{ "type": "Feature", "properties": { }, "geometry": { "type": "MultiPolygon", "coordinates": [ [ [ [ 6.74621, 49.774903 ], [ 6.74622, 49.774483 ], [ 6.74543, 49.774468 ], [ 6.745415, 49.774953 ], [ 6.74592, 49.774963 ], [ 6.74592, 49.774898 ], [ 6.74621, 49.774903 ] ] ] ] } },
{ "type": "Feature", "properties": { }, "geometry": { "type": "MultiPolygon", "coordinates": [ [ [ [ 6.819685, 49.798328 ], [ 6.81966, 49.798848 ], [ 6.82033, 49.798868 ], [ 6.820355, 49.798353 ], [ 6.819685, 49.798328 ] ] ] ] } },
{ "type": "Feature", "properties": { }, "geometry": { "type": "MultiPolygon", "coordinates": [ [ [ [ 7.12984, 49.502223 ], [ 7.129825, 49.502703 ], [ 7.130215, 49.502708 ], [ 7.13023, 49.502233 ], [ 7.12984, 49.502223 ] ] ] ] } },
{ "type": "Feature", "properties": { }, "geometry": { "type": "MultiPolygon", "coordinates": [ [ [ [ 7.12892, 49.533718 ], [ 7.12855, 49.534068 ], [ 7.12931, 49.534693 ], [ 7.12986, 49.534178 ], [ 7.129255, 49.533683 ], [ 7.12908, 49.533848 ], [ 7.12892, 49.533718 ] ] ] ] } },
{ "type": "Feature", "properties": { }, "geometry": { "type": "MultiPolygon", "coordinates": [ [ [ [ 7.13668, 49.548843 ], [ 7.13626, 49.549178 ], [ 7.136165, 49.549088 ], [ 7.13584, 49.549348 ], [ 7.1365, 49.549988 ], [ 7.136615, 49.549898 ], [ 7.13683, 49.550113 ], [ 7.13707, 49.549928 ], [ 7.136835, 49.549698 ], [ 7.137235, 49.549383 ], [ 7.13668, 49.548843 ] ] ] ] } },
{ "type": "Feature", "properties": { }, "geometry": { "type": "MultiPolygon", "coordinates": [ [ [ [ 7.147645, 50.028068 ], [ 7.148845, 50.028808 ], [ 7.149095, 50.028488 ], [ 7.149225, 50.028568 ], [ 7.14947, 50.028258 ], [ 7.149355, 50.028193 ], [ 7.14957, 50.027928 ], [ 7.148725, 50.027408 ], [ 7.14826, 50.027988 ], [ 7.147895, 50.027758 ], [ 7.147645, 50.028068 ] ] ] ] } },
{ "type": "Feature", "properties": { }, "geometry": { "type": "MultiPolygon", "coordinates": [ [ [ [ 7.18907, 49.866988 ], [ 7.188425, 49.866978 ], [ 7.188415, 49.867603 ], [ 7.18906, 49.867613 ], [ 7.18907, 49.866988 ] ] ] ] } },
{ "type": "Feature", "properties": { }, "geometry": { "type": "MultiPolygon", "coordinates": [ [ [ [ 6.764335, 49.956798 ], [ 6.763765, 49.956783 ], [ 6.763755, 49.957113 ], [ 6.763925, 49.957118 ], [ 6.76392, 49.957283 ], [ 6.76432, 49.957293 ], [ 6.764335, 49.956798 ] ] ] ] } },
{ "type": "Feature", "properties": { }, "geometry": { "type": "MultiPolygon", "coordinates": [ [ [ [ 7.30354, 50.071838 ], [ 7.30358, 50.071023 ], [ 7.302975, 50.070998 ], [ 7.30294, 50.071818 ], [ 7.30354, 50.071838 ] ] ] ] } },
{ "type": "Feature", "properties": { }, "geometry": { "type": "MultiPolygon", "coordinates": [ [ [ [ 7.222235, 50.012088 ], [ 7.221475, 50.012078 ], [ 7.221465, 50.012538 ], [ 7.22223, 50.012548 ], [ 7.222235, 50.012088 ] ] ] ] } },
{ "type": "Feature", "properties": { }, "geometry": { "type": "MultiPolygon", "coordinates": [ [ [ [ 7.139075, 50.107828 ], [ 7.139085, 50.107263 ], [ 7.138685, 50.107258 ], [ 7.138675, 50.107823 ], [ 7.139075, 50.107828 ] ] ] ] } },
{ "type": "Feature", "properties": { }, "geometry": { "type": "MultiPolygon", "coordinates": [ [ [ [ 7.07677, 50.126098 ], [ 7.07676, 50.126928 ], [ 7.077225, 50.126933 ], [ 7.077235, 50.126103 ], [ 7.07677, 50.126098 ] ] ] ] } },
{ "type": "Feature", "properties": { }, "geometry": { "type": "MultiPolygon", "coordinates": [ [ [ [ 7.24633, 50.012683 ], [ 7.244875, 50.012718 ], [ 7.24489, 50.013253 ], [ 7.24553, 50.013238 ], [ 7.24553, 50.013063 ], [ 7.24634, 50.013043 ], [ 7.24633, 50.012683 ] ] ] ] } },
{ "type": "Feature", "properties": { }, "geometry": { "type": "MultiPolygon", "coordinates": [ [ [ [ 6.791275, 49.894298 ], [ 6.792685, 49.894308 ], [ 6.79269, 49.894228 ], [ 6.792535, 49.894228 ], [ 6.792545, 49.893043 ], [ 6.792025, 49.893043 ], [ 6.79203, 49.892573 ], [ 6.79248, 49.892578 ], [ 6.79249, 49.891088 ], [ 6.7913, 49.891083 ], [ 6.791275, 49.894298 ] ] ] ] } },
{ "type": "Feature", "properties": { }, "geometry": { "type": "MultiPolygon", "coordinates": [ [ [ [ 6.920855, 50.037208 ], [ 6.92085, 50.036828 ], [ 6.92002, 50.036838 ], [ 6.920025, 50.037213 ], [ 6.920855, 50.037208 ] ] ] ] } },
{ "type": "Feature", "properties": { }, "geometry": { "type": "MultiPolygon", "coordinates": [ [ [ [ 7.18417, 49.730003 ], [ 7.18381, 49.729998 ], [ 7.18379, 49.730588 ], [ 7.18463, 49.730603 ], [ 7.18464, 49.730168 ], [ 7.184165, 49.730158 ], [ 7.18417, 49.730003 ] ] ] ] } },
{ "type": "Feature", "properties": { }, "geometry": { "type": "MultiPolygon", "coordinates": [ [ [ [ 7.29859, 49.631963 ], [ 7.29925, 49.632208 ], [ 7.29958, 49.631528 ], [ 7.298925, 49.631278 ], [ 7.29859, 49.631963 ] ] ] ] } },
{ "type": "Feature", "properties": { }, "geometry": { "type": "MultiPolygon", "coordinates": [ [ [ [ 6.6821, 49.989428 ], [ 6.68258, 49.989573 ], [ 6.68281, 49.988978 ], [ 6.682325, 49.988838 ], [ 6.6821, 49.989428 ] ] ] ] } },
{ "type": "Feature", "properties": { }, "geometry": { "type": "MultiPolygon", "coordinates": [ [ [ [ 6.70596, 49.982518 ], [ 6.705615, 49.982783 ], [ 6.705825, 49.982993 ], [ 6.70562, 49.983153 ], [ 6.705925, 49.983458 ], [ 6.706475, 49.983033 ], [ 6.70596, 49.982518 ] ] ] ] } },
{ "type": "Feature", "properties": { }, "geometry": { "type": "MultiPolygon", "coordinates": [ [ [ [ 6.646335, 50.121918 ], [ 6.646315, 50.122318 ], [ 6.64715, 50.122343 ], [ 6.647165, 50.121943 ], [ 6.646335, 50.121918 ] ] ] ] } },
{ "type": "Feature", "properties": { }, "geometry": { "type": "MultiPolygon", "coordinates": [ [ [ [ 6.70403, 50.167628 ], [ 6.70162, 50.167563 ], [ 6.701605, 50.168088 ], [ 6.70401, 50.168153 ], [ 6.70403, 50.167628 ] ] ] ] } },
{ "type": "Feature", "properties": { }, "geometry": { "type": "MultiPolygon", "coordinates": [ [ [ [ 7.211835, 50.077238 ], [ 7.21182, 50.076388 ], [ 7.21091, 50.076403 ], [ 7.21093, 50.077253 ], [ 7.211835, 50.077238 ] ] ] ] } },
{ "type": "Feature", "properties": { }, "geometry": { "type": "MultiPolygon", "coordinates": [ [ [ [ 7.252605, 50.077153 ], [ 7.25223, 50.077218 ], [ 7.252515, 50.078488 ], [ 7.254205, 50.078198 ], [ 7.2541, 50.077723 ], [ 7.253635, 50.077803 ], [ 7.253585, 50.077573 ], [ 7.25273, 50.077723 ], [ 7.252605, 50.077153 ] ] ] ] } }
]
}
